,Address,City,State,ZIP Code,Company Name
0,265 W Oakland Park Blvd,Wilton Manors,FL,33311,Mc Donald's
1,326 Indian Trce,Weston,FL,33326,Mc Donald's
2,1020 Weston Rd,Weston,FL,33326,Mc Donald's
3,9835 Okeechobee Blvd,West Palm Beach,FL,33411,Mc Donald's
4,828 S Military Trl,West Palm Beach,FL,33415,Mc Donald's
5,6858 Okeechobee Blvd,West Palm Beach,FL,33411,Mc Donald's
6,650 Belvedere Rd,West Palm Beach,FL,33405,Mc Donald's
7,4275 45th St,West Palm Beach,FL,33407,Mc Donald's
8,3015 Forest Hill Blvd,West Palm Beach,FL,33406,Mc Donald's
9,2605 S Military Trl,West Palm Beach,FL,33415,Mc Donald's
10,2421 Okeechobee Blvd,West Palm Beach,FL,33409,Mc Donald's
11,1775 N Military Trl,West Palm Beach,FL,33409,Mc Donald's
12,1720 Palm Beach Lakes Blvd,West Palm Beach,FL,33401,Mc Donald's
13,100 S State Road 7,West Palm Beach,FL,33414,Mc Donald's
14,2755 S State Road 7,Wellington,FL,33414,Mc Donald's
15,1470 Greenview Shores Blvd,Wellington,FL,33414,Mc Donald's
16,10300 Forest Hill Blvd,Wellington,FL,33414,Mc Donald's
17,8375 NW 88th Ave,Tamarac,FL,33321,Mc Donald's
18,9220 W Commercial Blvd,Sunrise,FL,33351,Mc Donald's
19,7600 NW 57th St,Sunrise,FL,33351,Mc Donald's
20,4301 N Pine Island Rd,Sunrise,FL,33351,Mc Donald's
21,2260 N University Dr,Sunrise,FL,33322,Mc Donald's
22,13655 W Sunrise Blvd,Sunrise,FL,33323,Mc Donald's
23,10901 W Oakland Park Blvd,Sunrise,FL,33351,Mc Donald's
24,10013 Sunset Strip,Sunrise,FL,33322,Mc Donald's
25,1108 State Route 34,Aberdeen,NJ,7747,Mc Donald's
26,1501 Main St,Asbury Park,NJ,7712,Mc Donald's
27,970 State Route 36,Atlantic Highlands,NJ,7716,Mc Donald's
28,1256 Saint Georges Ave # 1,Avenel,NJ,7001,Mc Donald's
29,580 N Main St,Barnegat,NJ,8005,Mc Donald's
30,157 W 63rd St,Bayonne,NJ,7002,Mc Donald's
31,537 Broadway,Bayonne,NJ,7002,Mc Donald's
32,417 Atlantic City Blvd,Bayville,NJ,8721,Mc Donald's
33,173 Franklin St,Belleville,NJ,7109,Mc Donald's
34,663 Washington Ave,Belleville,NJ,7109,Mc Donald's
35,326 S Washington Ave,Bergenfield,NJ,7621,Mc Donald's
36,1339 Broad St,Bloomfield,NJ,7003,Mc Donald's
37,425 Broad St,Bloomfield,NJ,7003,Mc Donald's
38,568 Myrtle Ave,Boonton,NJ,7005,Mc Donald's
39,944 US Highway 202 S,Branchburg,NJ,8876,Mc Donald's
40,106 Chambers Bridge Rd,Brick,NJ,8723,Mc Donald's
41,1872 Route 88,Brick,NJ,8724,Mc Donald's
42,191 Van Zile Rd,Brick,NJ,8724,Mc Donald's
43,680 Promenade Blvd,Bridgewater,NJ,8807,Mc Donald's
44,1479 State Rt 23,Butler,NJ,7405,Mc Donald's
45,835 Roosevelt Ave # 714,Carteret,NJ,7008,Mc Donald's
46,35 Morris County Mall,Cedar Knolls,NJ,7927,Mc Donald's
47,108 Central Ave,Clark,NJ,7066,Mc Donald's
48,185 Center St,Clinton,NJ,8809,Mc Donald's
49,534 Monmouth Rd,Cream Ridge,NJ,8514,Mc Donald's
50,1133 Eastern Pkwy,Brooklyn,NY,11213,Mc Donald's
51,1275 Fulton St,Brooklyn,NY,11216,Mc Donald's
52,1380 Broadway,Brooklyn,NY,11221,Mc Donald's
53,139 Flatbush Ave # A8,Brooklyn,NY,11217,Mc Donald's
54,1403 Mermaid Ave,Brooklyn,NY,11224,Mc Donald's
55,1467 Rockaway Pkwy,Brooklyn,NY,11236,Mc Donald's
56,15 Jamaica Ave,Brooklyn,NY,11207,Mc Donald's
57,1531 Fulton St,Brooklyn,NY,11216,Mc Donald's
58,1642 Pitkin Ave,Brooklyn,NY,11212,Mc Donald's
59,1656 Utica Ave,Brooklyn,NY,11234,Mc Donald's
60,180 Parkside Ave # A,Brooklyn,NY,11226,Mc Donald's
61,1883 Atlantic Ave,Brooklyn,NY,11233,Mc Donald's
62,1983 86th St,Brooklyn,NY,11214,Mc Donald's
63,2028 Rockaway Pkwy,Brooklyn,NY,11236,Mc Donald's
64,2154 Nostrand Ave # 2036,Brooklyn,NY,11210,Mc Donald's
65,2240 Flatbush Ave,Brooklyn,NY,11234,Mc Donald's
66,2410 Coney Island Ave,Brooklyn,NY,11223,Mc Donald's
67,2413 86th St,Brooklyn,NY,11214,Mc Donald's
68,267 Broadway,Brooklyn,NY,11211,Mc Donald's
69,2797 Linden Blvd,Brooklyn,NY,11208,Mc Donald's
70,2800 Atlantic Ave,Brooklyn,NY,11207,Mc Donald's
71,289 9th St,Brooklyn,NY,11215,Mc Donald's
72,3143 Atlantic Ave,Brooklyn,NY,11208,Mc Donald's
73,3525 Fort Hamilton Pkwy,Brooklyn,NY,11218,Mc Donald's
74,3540 Nostrand Ave,Brooklyn,NY,11229,Mc Donald's
75,9858 S Military Trl,Boynton Beach,FL,33436,Mc Donald's
76,1810 S Federal Hwy,Boynton Beach,FL,33435,Mc Donald's
77,1799 N Congress Ave,Boynton Beach,FL,33426,Mc Donald's
78,1610 S Congress Ave # B,Boynton Beach,FL,33426,Mc Donald's
79,710 W Yamato Rd,Boca Raton,FL,33431,Mc Donald's
80,7030 W Palmetto Park Rd,Boca Raton,FL,33433,Mc Donald's
81,2911 Clint Moore Rd,Boca Raton,FL,33496,Mc Donald's
82,23073 Sandalfoot Plaza Dr,Boca Raton,FL,33428,Mc Donald's
83,2140 N Federal Hwy,Boca Raton,FL,33431,Mc Donald's
84,20594 State Road 7,Boca Raton,FL,33498,Mc Donald's
85,1776 N Military Trl,Boca Raton,FL,33486,Mc Donald's
86,833 S Main St,Belle Glade,FL,33430,Mc Donald's
87,357 Hamilton Ave,Brooklyn,NY,11231,Mc Donald's
88,395 Flatbush Avenue Ext,Brooklyn,NY,11201,Mc Donald's
89,420 Fulton St,Brooklyn,NY,11201,Mc Donald's
90,428 Knickerbocker Ave,Brooklyn,NY,11237,Mc Donald's
91,430 86th St,Brooklyn,NY,11209,Mc Donald's
92,5121 5th Ave,Brooklyn,NY,11220,Mc Donald's
93,5407 Kings Plz,Brooklyn,NY,11234,Mc Donald's
94,57 Empire Blvd,Brooklyn,NY,11225,Mc Donald's
95,5713 Church Ave,Brooklyn,NY,11203,Mc Donald's
96,5804 Clarendon Rd,Brooklyn,NY,11203,Mc Donald's
97,606 Neptune Ave,Brooklyn,NY,11224,Mc Donald's
98,652 Meeker Ave,Brooklyn,NY,11222,Mc Donald's
99,6620 Bay Pkwy,Brooklyn,NY,11204,Mc Donald's
100,700 Broadway,Brooklyn,NY,11206,Mc Donald's
101,701 Utica Ave,Brooklyn,NY,11203,Mc Donald's
102,7124 3rd Ave,Brooklyn,NY,11209,Mc Donald's
103,741 Grand St,Brooklyn,NY,11211,Mc Donald's
104,7602 Flatlands Ave,Brooklyn,NY,11236,Mc Donald's
105,819 Pennsylvania Ave,Brooklyn,NY,11207,Mc Donald's
106,82 Court St,Brooklyn,NY,11201,Mc Donald's
107,840 Atlantic Ave,Brooklyn,NY,11238,Mc Donald's
108,880 Coney Island Ave,Brooklyn,NY,11218,Mc Donald's
109,904 Manhattan Ave,Brooklyn,NY,11222,Mc Donald's
110,943 Flatbush Ave,Brooklyn,NY,11226,Mc Donald's
111,968 4th Ave,Brooklyn,NY,11232,Mc Donald's
112,21607 Linden Blvd,Cambria Heights,NY,11411,Mc Donald's
113,95 Westbury Ave,Carle Place,NY,11514,Mc Donald's
114,1931 Route 6,Carmel,NY,10512,Mc Donald's
115,626 Main St,Center Moriches,NY,11934,Mc Donald's
116,161 Centereach Mall,Centereach,NY,11720,Mc Donald's
117,1724 Middle Country Rd,Centereach,NY,11720,Mc Donald's
118,13 W Suffolk Ave,Central Islip,NY,11722,Mc Donald's
119,2 Vanderbilt Motor Pkwy,Commack,NY,11725,Mc Donald's
120,313 Middle Country Rd,Coram,NY,11727,Mc Donald's
121,3719 Junction Blvd,Corona,NY,11368,Mc Donald's
122,4012 National St,Corona,NY,11368,Mc Donald's
123,3078 E Main St,Cortlandt Manor,NY,10567,Mc Donald's
124,3481 Crompond Rd,Cortlandt Manor,NY,10567,Mc Donald's
125,8805 Astoria Blvd,East Elmhurst,NY,11369,Mc Donald's
126,2361 Hempstead Tpke,East Meadow,NY,11554,Mc Donald's
127,1999 Jericho Tpke,East Northport,NY,11731,Mc Donald's
128,769 Montauk Hwy,East Patchogue,NY,11772,Mc Donald's
129,8003 Queens Blvd,Elmhurst,NY,11373,Mc Donald's
130,9015 Queens Blvd,Elmhurst,NY,11373,Mc Donald's
131,1420 Hempstead Tpke,Elmont,NY,11003,Mc Donald's
132,2141 Mott Ave,Far Rockaway,NY,11691,Mc Donald's
133,655 Fulton St,Farmingdale,NY,11735,Mc Donald's
134,2301 N Ocean Ave,Farmingville,NY,11738,Mc Donald's
135,13811 20th Ave,Flushing,NY,11356,Mc Donald's
136,3001 Stratton St,Flushing,NY,11354,Mc Donald's
137,4018 Main St,Flushing,NY,11354,Mc Donald's
138,7269 Kissena Blvd,Flushing,NY,11367,Mc Donald's
139,10615 Continental Ave,Forest Hills,NY,11375,Mc Donald's
140,9801 Metropolitan Ave,Forest Hills,NY,11375,Mc Donald's
141,575 Franklin Ave,Franklin Square,NY,11010,Mc Donald's
142,157 W Merrick Rd,Freeport,NY,11520,Mc Donald's
143,637 Stewart Ave,Garden City,NY,11530,Mc Donald's
144,193 Glen St,Glen Cove,NY,11542,Mc Donald's
145,25603 Union Tpke,Glen Oaks,NY,11004,Mc Donald's
146,7002 Cooper Ave,Glendale,NY,11385,Mc Donald's
147,196 W Montauk Hwy,Hampton Bays,NY,11946,Mc Donald's
148,407 N Central Ave,Hartsdale,NY,10530,Mc Donald's
149,517 Route 111,Hauppauge,NY,11788,Mc Donald's
150,254 Route 9w,Haverstraw,NY,10927,Mc Donald's
151,340 Peninsula Blvd,Hempstead,NY,11550,Mc Donald's
152,280 N Broadway,Hicksville,NY,11801,Mc Donald's
153,805 S Broadway,Hicksville,NY,11801,Mc Donald's
154,20411 Hillside Ave,Hollis,NY,11423,Mc Donald's
155,15940 Crossbay Blvd,Howard Beach,NY,11414,Mc Donald's
156,344 W Jericho Tpke,Huntington,NY,11743,Mc Donald's
157,1850 Veterans Hwy,Islandia,NY,11749,Mc Donald's
158,107 Main St,Islip,NY,11751,Mc Donald's
159,3759 82nd St,Jackson Heights,NY,11372,Mc Donald's
160,11401 Sutphin Blvd,Jamaica,NY,11434,Mc Donald's
161,12034 Queens Blvd,Jamaica,NY,11415,Mc Donald's
162,13832 Jamaica Ave,Jamaica,NY,11435,Mc Donald's
163,15901 Jamaica Ave,Jamaica,NY,11432,Mc Donald's
164,16601 Baisley Blvd,Jamaica,NY,11434,Mc Donald's
165,16605 Rockaway Blvd,Jamaica,NY,11434,Mc Donald's
166,16630 Jamaica Ave,Jamaica,NY,11432,Mc Donald's
167,18125 Hillside Ave,Jamaica,NY,11432,Mc Donald's
168,Jfk Airport Terminal 4,Jamaica,NY,11430,Mc Donald's
169,Jfk Terminal 4,Jamaica,NY,11430,Mc Donald's
170,105 Jericho Tpke,Jericho,NY,11753,Mc Donald's
171,174 Portion Rd,Lake Ronkonkoma,NY,11779,Mc Donald's
172,365 Rockaway Tpke,Lawrence,NY,11559,Mc Donald's
173,3839 Hempstead Tpke,Levittown,NY,11756,Mc Donald's
174,221 Sunrise Hwy,Lindenhurst,NY,11757,Mc Donald's
175,334 Montauk Hwy,Lindenhurst,NY,11757,Mc Donald's
176,25001 Northern Blvd,Little Neck,NY,11362,Mc Donald's
177,665 Long Beach Blvd,Long Beach,NY,11561,Mc Donald's
178,3146 21st St,Long Island City,NY,11106,Mc Donald's
179,3255 31st St,Long Island City,NY,11106,Mc Donald's
180,3380 Queens Blvd,Long Island City,NY,11101,Mc Donald's
181,121 Merrick Rd,Lynbrook,NY,11563,Mc Donald's
182,154 Route 6,Mahopac,NY,10541,Mc Donald's
183,1205 W Boston Post Rd,Mamaroneck,NY,10543,Mc Donald's
184,560 County Road 111,Manorville,NY,11949,Mc Donald's
185,5960 55th Rd,Maspeth,NY,11378,Mc Donald's
186,5500 Sunrise Hwy # 20,Massapequa,NY,11758,Mc Donald's
187,8850 Main Rd,Mattituck,NY,11952,Mc Donald's
188,1710 Route 112,Medford,NY,11763,Mc Donald's
189,729 NY-110,Melville,NY,11747,Mc Donald's
190,1813 Merrick Rd,Merrick,NY,11566,Mc Donald's
191,1175 Middle Country Rd,Middle Island,NY,11953,Mc Donald's
192,340 Route 25a,Miller Place,NY,11764,Mc Donald's
193,60 Jericho Tpke,Mineola,NY,11501,Mc Donald's
194,470 S Fulton Ave,Mount Vernon,NY,10553,Mc Donald's
195,6 Gramatan Ave,Mount Vernon,NY,10550,Mc Donald's
196,256 E Route 59,Nanuet,NY,10954,Mc Donald's
197,33 Cavalry Dr,New City,NY,10956,Mc Donald's
198,2045 Jericho Tpke,New Hyde Park,NY,11040,Mc Donald's
199,270 Main St # 272,New Rochelle,NY,10801,Mc Donald's
200,720 724 North Ave,New Rochelle,NY,10801,Mc Donald's
201,102 1st Ave # A,New York,NY,10009,Mc Donald's
202,114 Delancey St,New York,NY,10002,Mc Donald's
203,1188 Avenue Of The Americas,New York,NY,10036,Mc Donald's
204,1286 1st Ave,New York,NY,10021,Mc Donald's
205,136 W 3rd St,New York,NY,10012,Mc Donald's
206,14 E 47th St,New York,NY,10017,Mc Donald's
207,145 E 125th St,New York,NY,10035,Mc Donald's
208,148 W 125th St,New York,NY,10027,Mc Donald's
209,1499 3rd Ave,New York,NY,10028,Mc Donald's
210,151 W 34th St # 7,New York,NY,10001,Mc Donald's
211,1528 Broadway,New York,NY,10036,Mc Donald's
212,160 Broadway,New York,NY,10038,Mc Donald's
213,1651 Broadway,New York,NY,10019,Mc Donald's
214,167 Chambers St,New York,NY,10007,Mc Donald's
215,18 E 42nd St,New York,NY,10017,Mc Donald's
216,1871 2nd Ave,New York,NY,10029,Mc Donald's
217,1872 3rd Ave,New York,NY,10029,Mc Donald's
218,2049 Broadway,New York,NY,10023,Mc Donald's
219,208 Dyckman St,New York,NY,10040,Mc Donald's
220,2142 3rd Ave,New York,NY,10035,Mc Donald's
221,220 W 42nd St # 3,New York,NY,10036,Mc Donald's
222,2379 Adam Clayton Powell Jr Bl,New York,NY,10030,Mc Donald's
223,2549 Broadway,New York,NY,10025,Mc Donald's
224,26 E 23rd St,New York,NY,10010,Mc Donald's
225,262 Canal St,New York,NY,10013,Mc Donald's
226,2726 Broadway,New York,NY,10025,Mc Donald's
227,335 8th Ave,New York,NY,10001,Mc Donald's
228,336 E 23rd St,New York,NY,10010,Mc Donald's
229,3410 Broadway # 2,New York,NY,10031,Mc Donald's
230,354 W 125th St,New York,NY,10027,Mc Donald's
231,3549 Broadway,New York,NY,10031,Mc Donald's
232,3809 Broadway,New York,NY,10032,Mc Donald's
233,39 Union Sq W,New York,NY,10003,Mc Donald's
234,401 Park Ave S,New York,NY,10016,Mc Donald's
235,404 E 14th St # 1,New York,NY,10009,Mc Donald's
236,4040 Broadway,New York,NY,10032,Mc Donald's
237,4259 Broadway,New York,NY,10033,Mc Donald's
238,429 7th Ave,New York,NY,10001,Mc Donald's
239,444 Malcolm X Blvd,New York,NY,10037,Mc Donald's
240,480 3rd Ave,New York,NY,10016,Mc Donald's
241,490 8th Ave,New York,NY,10001,Mc Donald's
242,541 Avenue Of The Americas,New York,NY,10011,Mc Donald's
243,556 Fashion Ave,New York,NY,10018,Mc Donald's
244,608 W 207th St,New York,NY,10034,Mc Donald's
245,686 Avenue Of The Americas,New York,NY,10010,Mc Donald's
246,688 8th Ave # 1,New York,NY,10036,Mc Donald's
247,724 Broadway,New York,NY,10003,Mc Donald's
248,809 Avenue Of The Americas,New York,NY,10001,Mc Donald's
249,824 3rd Ave,New York,NY,10022,Mc Donald's
250,946 8th Ave,New York,NY,10019,Mc Donald's
251,966 3rd Ave,New York,NY,10022,Mc Donald's
252,972 Avenue Of The Americas,New York,NY,10018,Mc Donald's
253,1255 Deer Park Ave,North Babylon,NY,11703,Mc Donald's
254,1510 Deer Park Ave,North Babylon,NY,11703,Mc Donald's
255,1255 Grand Ave,North Baldwin,NY,11510,Mc Donald's
256,834 Fort Salonga Rd,Northport,NY,11768,Mc Donald's
257,55 Route 59,Nyack,NY,10960,Mc Donald's
258,4498 Sunrise Hwy,Oakdale,NY,11769,Mc Donald's
259,3135 Atlantic Ave,Oceanside,NY,11572,Mc Donald's
260,214 S Highland Ave,Ossining,NY,10562,Mc Donald's
261,245 Pine Hollow Rd,Oyster Bay,NY,11771,Mc Donald's
262,7550 101st Ave,Ozone Park,NY,11416,Mc Donald's
263,499 N Service Rd # 85,Patchogue,NY,11772,Mc Donald's
264,20 Welcher Ave,Peekskill,NY,10566,Mc Donald's
265,818 Old Country Rd,Plainview,NY,11803,Mc Donald's
266,321 Boston Post Rd,Port Chester,NY,10573,Mc Donald's
267,5136 Nesconset Hwy,Port Jefferson Station,NY,11776,Mc Donald's
268,8814 Springfield Blvd,Queens Village,NY,11427,Mc Donald's
269,5404 Myrtle Ave,Ridgewood,NY,11385,Mc Donald's
270,5429 Metropolitan Ave,Ridgewood,NY,11385,Mc Donald's
271,268 New York Route 58,Riverhead,NY,11901,Mc Donald's
272,268 Old Country Rd,Riverhead,NY,11901,Mc Donald's
273,30 Flanders Rd,Riverhead,NY,11901,Mc Donald's
274,9118 Beach Channel Dr,Rockaway Beach,NY,11693,Mc Donald's
275,618 Sunrise Hwy,Rockville Centre,NY,11570,Mc Donald's
276,463 Route 25a,Rocky Point,NY,11778,Mc Donald's
277,265 Nassau Rd,Roosevelt,NY,11575,Mc Donald's
278,24410 Merrick Blvd,Rosedale,NY,11422,Mc Donald's
279,11905 Liberty Ave,South Richmond Hill,NY,11419,Mc Donald's
280,971 Montauk Hwy,Shirley,NY,11967,Mc Donald's
281,NY State Turnpike Mile Post 33,Sloatsburg,NY,10974,Mc Donald's
282,923 W Jericho Tpke,Smithtown,NY,11787,Mc Donald's
283,307 N Sea Rd,Southampton,NY,11968,Mc Donald's
284,106 Route 59,Spring Valley,NY,10977,Mc Donald's
285,22112 S Conduit Ave,Springfield Gardens,NY,11413,Mc Donald's
286,614 Middle Country Rd,Saint James,NY,11780,Mc Donald's
287,1660 Richmond Ave,Staten Island,NY,10314,Mc Donald's
288,1815 Forest Ave,Staten Island,NY,10303,Mc Donald's
289,2154 Hylan Blvd,Staten Island,NY,10306,Mc Donald's
290,260 Page Ave,Staten Island,NY,10307,Mc Donald's
291,3267 Richmond Ave,Staten Island,NY,10312,Mc Donald's
292,501 Bay St,Staten Island,NY,10304,Mc Donald's
293,803 Forest Ave,Staten Island,NY,10310,Mc Donald's
294,2324 Nesconset Hwy,Stony Brook,NY,11790,Mc Donald's
295,1 Indian Rock,Suffern,NY,10901,Mc Donald's
296,571 Jericho Tpke,Syosset,NY,11791,Mc Donald's
297,140 Wildey St,Tarrytown,NY,10591,Mc Donald's
298,600 Marble Ave,Thornwood,NY,10594,Mc Donald's
299,1050 Front St,Uniondale,NY,11553,Mc Donald's
300,1110 Hempstead Tpke,Uniondale,NY,11553,Mc Donald's
301,10 W Sunrise Hwy,Valley Stream,NY,11581,Mc Donald's
302,6333 Route 25a,Wading River,NY,11792,Mc Donald's
303,1946 Wantagh Ave,Wantagh,NY,11793,Mc Donald's
304,380 Hempstead Tpke,West Hempstead,NY,11552,Mc Donald's
305,856 Hempstead Ave,West Hempstead,NY,11552,Mc Donald's
306,131 Sunrise Hwy,West Islip,NY,11795,Mc Donald's
307,35 Old Country Rd,Westbury,NY,11590,Mc Donald's
308,16011 Willets Point Blvd,Whitestone,NY,11357,Mc Donald's
309,9101 Jamaica Ave,Woodhaven,NY,11421,Mc Donald's
310,5135 Northern Blvd,Woodside,NY,11377,Mc Donald's
311,1144 Yonkers Ave,Yonkers,NY,10704,Mc Donald's
312,17730 Collins Ave,Sunny Isles Beach,FL,33160,Mc Donald's
313,15911 Sheridan St,Southwest Ranches,FL,33331,Mc Donald's
314,7600 S Red Rd # 211,South Miami,FL,33143,Mc Donald's Corporate Office
315,6150 S Dixie Hwy,South Miami,FL,33143,Mc Donald's
316,9990 Belvedere Rd,Royal Palm Beach,FL,33411,Mc Donald's
317,1400 Royal Palm Beach Blvd,Royal Palm Beach,FL,33411,Mc Donald's
318,4132 W Blue Heron Blvd,Riviera Beach,FL,33404,Mc Donald's
319,3551 Broadway,Riviera Beach,FL,33404,Mc Donald's
320,630 W Sample Rd,Pompano Beach,FL,33064,Mc Donald's
321,320 W Copans Rd,Pompano Beach,FL,33064,Mc Donald's
322,3091 N Federal Hwy,Pompano Beach,FL,33064,Mc Donald's
323,2025 E Atlantic Blvd,Pompano Beach,FL,33060,Mc Donald's
324,1490 NW 31st Ave,Pompano Beach,FL,33069,Mc Donald's
325,1 S Pompano Pkwy,Pompano Beach,FL,33069,Mc Donald's
326,100 S Pine Island Rd # 100,Plantation,FL,33324,Mc Donald's Corporate Office
327,1351 S University Dr,Plantation,FL,33324,Mc Donald's
328,12647 S Dixie Hwy,Pinecrest,FL,33156,Mc Donald's
329,18295 S Dixie Hwy,Perrine,FL,33157,Mc Donald's
330,18489 Pines Blvd,Pembroke Pines,FL,33029,Mc Donald's
331,151 SW 184th Ave,Pembroke Pines,FL,33029,Mc Donald's
332,1490 N University Dr,Pembroke Pines,FL,33024,Mc Donald's
333,12480 Pines Blvd,Pembroke Pines,FL,33027,Mc Donald's
334,11100 Taft St,Pembroke Pines,FL,33026,Mc Donald's
335,3671 S Congress Ave,Palm Springs,FL,33461,Mc Donald's
336,9880 Alternate A1a,Palm Beach Gardens,FL,33410,Mc Donald's
337,361 State Route 18,East Brunswick,NJ,8816,Mc Donald's
338,730 State Route 18,East Brunswick,NJ,8816,Mc Donald's
339,305 State Route 10,East Hanover,NJ,7936,Mc Donald's
340,375 Central Ave,East Orange,NJ,7018,Mc Donald's
341,18 NJ-35,Eatontown,NJ,7724,Mc Donald's
342,River Road,Edgewater,NJ,7020,Mc Donald's
343,1075 US Highway 1,Edison,NJ,8837,Mc Donald's
344,1966 State Route 27,Edison,NJ,8817,Mc Donald's
345,59 State Route 27,Edison,NJ,8820,Mc Donald's
346,33 Broad St,Elizabeth,NJ,7201,Mc Donald's
347,420 US Highway 1 # 34,Elizabeth,NJ,7202,Mc Donald's
348,819 North Ave E,Elizabeth,NJ,7201,Mc Donald's
349,41-43 W Palisade Ave,Englewood,NJ,7631,Mc Donald's
350,16 Wilson Ave,Englishtown,NJ,7726,Mc Donald's
351,78 US Highway 9,Englishtown,NJ,7726,Mc Donald's
352,37-01 Broadway,Fair Lawn,NJ,7410,Mc Donald's
353,460 US Highway 46,Fairfield,NJ,7004,Mc Donald's
354,289 Bergen Blvd,Fairview,NJ,7022,Mc Donald's
355,293 US Highway 206,Flanders,NJ,7836,Mc Donald's
356,30 International Dr S,Flanders,NJ,7836,Mc Donald's
357,72 Reaville Ave,Flemington,NJ,8822,Mc Donald's
358,176 Columbia Tpke # 14,Florham Park,NJ,7932,Mc Donald's
359,2152 Lemoine Ave,Fort Lee,NJ,7024,Mc Donald's
360,260 NJ-23,Franklin,NJ,7416,Mc Donald's
361,3636 US Highway 9,Freehold,NJ,7728,Mc Donald's
362,1200 Nepperhan Ave,Yonkers,NY,10703,Mc Donald's
363,155 S Broadway,Yonkers,NY,10701,Mc Donald's
364,2554 Central Park Ave,Yonkers,NY,10710,Mc Donald's
365,336 Tuckahoe Rd,Yonkers,NY,10710,Mc Donald's
366,4 Front St,Croton Falls,NY,10519,Mc Donald's Corporate Office
367,17 Old Brook Rd,Dix Hills,NY,11746,Mc Donald's Corporate Office
368,134 W Hills Rd,Huntington Station,NY,11746,Mc Donald's Corporate Office
369,806 W Merrick Rd,Valley Stream,NY,11580,Mc Donald's Corporate Office
370,806 W Merrick Rd,Valley Stream,NY,11580,Mc Donalds
371,Chapman Blvd,Manorville,NY,11949,Mcdonalds Restaurants
372,603 Route 739,Hawley,PA,18428,Mc Donald's
373,216 Route 6 And 209,Milford,PA,18337,Mc Donald's
374,3805 Northlake Blvd,Palm Beach Gardens,FL,33403,Mc Donald's
375,1930 Opa Locka Blvd,Opa Locka,FL,33054,Mc Donald's
376,3073 W Oakland Park Blvd,Oakland Park,FL,33311,Mc Donald's
377,1352 E Commercial Blvd,Oakland Park,FL,33334,Mc Donald's
378,12025 US Highway 1,North Palm Beach,FL,33408,Mc Donald's
379,2201 NE 163rd St,North Miami Beach,FL,33160,Mc Donald's
380,200 NE 167th St,North Miami Beach,FL,33162,Mc Donald's
381,1425 NE 163rd St,North Miami Beach,FL,33162,Mc Donald's
382,610 NE 125th St,North Miami,FL,33161,Mc Donald's
383,13000 Biscayne Blvd,North Miami,FL,33181,Mc Donald's
384,11899 NW 7th Ave,North Miami,FL,33168,Mc Donald's
385,7520 Southgate Blvd,North Lauderdale,FL,33068,Mc Donald's
386,7200 W Mcnab Rd,North Lauderdale,FL,33068,Mc Donald's
387,6204 Miramar Pkwy,Miramar,FL,33023,Mc Donald's
388,3306 S University Dr,Miramar,FL,33025,Mc Donald's
389,2351 SW 101st Ave,Miramar,FL,33025,Mc Donald's
390,17001 Miramar Pkwy,Miramar,FL,33027,Mc Donald's
391,14301 Miramar Pkwy,Miramar,FL,33027,Mc Donald's
392,4999 NW 36th St,Miami Springs,FL,33166,Mc Donald's
393,7435 Miami Lakes Dr,Miami Lakes,FL,33014,Mc Donald's
394,4686 NW 183rd St,Miami Gardens,FL,33055,Mc Donald's
395,19501 NW 27th Ave,Miami Gardens,FL,33056,Mc Donald's
396,17650 NW 2nd Ave,Miami Gardens,FL,33169,Mc Donald's
397,1650 Washington Ave,Miami Beach,FL,33139,Mc Donald's
398,1601 Alton Rd,Miami Beach,FL,33139,Mc Donald's
399,180 Passaic St,Garfield,NJ,7026,Mc Donald's
400,216 North Ave,Garwood,NJ,7027,Mc Donald's
401,10 US Highway 22,Green Brook,NJ,8812,Mc Donald's
402,193 Essex St,Hackensack,NJ,7601,Mc Donald's
403,343 River St,Hackensack,NJ,7601,Mc Donald's
404,329 State Rt 17,Hasbrouck Heights,NJ,7604,Mc Donald's
405,184 3rd Ave,Hawthorne,NJ,7506,Mc Donald's
406,3120 State Route 35,Hazlet,NJ,7730,Mc Donald's
407,410 US Highway 206,Hillsborough,NJ,8844,Mc Donald's
408,395 Long Ave,Hillside,NJ,7205,Mc Donald's
409,234 Washington St,Hoboken,NJ,7030,Mc Donald's
410,3410 US Highway 9,Howell,NJ,7731,Mc Donald's
411,4900 US Highway 9,Howell,NJ,7731,Mc Donald's
412,783 Springfield Ave,Irvington,NJ,7111,Mc Donald's
413,1136 E Veterans Hwy,Jackson,NJ,8527,Mc Donald's
414,260 N County Line Rd,Jackson,NJ,8527,Mc Donald's
415,1 Gateway Blvd,Jamesburg,NJ,8831,Mc Donald's
416,197 12th St,Jersey City,NJ,7310,Mc Donald's
417,260 Central Ave # 1,Jersey City,NJ,7307,Mc Donald's
418,2873 John F Kennedy Blvd,Jersey City,NJ,7306,Mc Donald's
419,30 Mall Dr W,Jersey City,NJ,7310,Mc Donald's
420,325 Grove St,Jersey City,NJ,7302,Mc Donald's
421,390 Martin Luther King Jr Dr,Jersey City,NJ,7305,Mc Donald's
422,428 Grand St,Jersey City,NJ,7302,Mc Donald's
423,737 Secaucus Rd,Jersey City,NJ,7307,Mc Donald's
424,1855 NW 119th St,Miami,FL,33167,Mcdonald's Academy
425,9850 SW 8th St,Miami,FL,33174,Mc Donald's
426,9681 SW 72nd St,Miami,FL,33173,Mc Donald's
427,9341 SW 56th St,Miami,FL,33165,Mc Donald's
428,9250 NW 7th Ave,Miami,FL,33150,Mc Donald's
429,901 NW 17th St # A,Miami,FL,33136,Mc Donald's
430,8116 Biscayne Blvd,Miami,FL,33138,Mc Donald's
431,8050 NW 27th Ave # 305,Miami,FL,33147,Mc Donald's
432,7995 W Flagler St,Miami,FL,33144,Mc Donald's
433,7901 Bird Rd,Miami,FL,33155,Mc Donald's
434,7405 NW 36th St,Miami,FL,33166,Mc Donald's
435,7281 SW 8th St,Miami,FL,33144,Mc Donald's
436,6700 Bird Rd,Miami,FL,33155,Mc Donald's
437,599 NW 62nd St,Miami,FL,33150,Mc Donald's
438,5650 NW 7th St,Miami,FL,33126,Mc Donald's
439,4180 SW 9th St,Miami,FL,33134,Mc Donald's
440,3747 NW 7th St,Miami,FL,33126,Mc Donald's
441,3501 Biscayne Blvd,Miami,FL,33137,Mc Donald's
442,345 NE 2nd Ave,Miami,FL,33132,Mc Donald's
443,3200 S Dixie Hwy,Miami,FL,33133,Mc Donald's
444,299 SW 8th St,Miami,FL,33130,Mc Donald's
445,2940 SW 8th St,Miami,FL,33135,Mc Donald's
446,2300 SW 87th Ave,Miami,FL,33165,Mc Donald's
447,2200 NW 36th St,Miami,FL,33142,Mc Donald's
448,20101 NW 2nd Ave,Miami,FL,33169,Mc Donald's
449,891 Communipaw Ave,Jersey City,NJ,7304,Mc Donald's
450,Amboy Ave & Route 35,Keyport,NJ,7735,Mc Donald's
451,735 State Route 15 S,Lake Hopatcong,NJ,7849,Mc Donald's
452,98 Route 70,Lakehurst,NJ,8733,Mc Donald's
453,408 US Highway 9,Lanoka Harbor,NJ,8734,Mc Donald's
454,1117 US Highway 46,Ledgewood,NJ,7852,Mc Donald's
455,53 Boonton Tpke,Lincoln Park,NJ,7035,Mc Donald's
456,107 W Edgar Rd,Linden,NJ,7036,Mc Donald's
457,405 US Highway 46,Little Falls,NJ,7424,Mc Donald's
458,319 US Highway 46,Little Ferry,NJ,7643,Mc Donald's
459,229 Broadway,Long Branch,NJ,7740,Mc Donald's
460,460 Route 9 S,Little Egg Harbor Twp,NJ,8087,Mc Donald's
461,150 State Rt 17,Mahwah,NJ,7430,Mc Donald's
462,757 Route 72 W,Manahawkin,NJ,8050,Mc Donald's
463,2428 NJ-35,Manasquan,NJ,8736,Mc Donald's
464,60 N Main St,Manville,NJ,8835,Mc Donald's
465,125 Bound Brook Rd,Middlesex,NJ,8846,Mc Donald's
466,925 State Route 35,Middletown,NJ,7748,Mc Donald's
467,3955 US Highway 1,Monmouth Junction,NJ,8852,Mc Donald's
468,13 State Route 23 # 4,Montague,NJ,7827,Mc Donald's
469,3542 State Route 66,Neptune,NJ,7753,Mc Donald's
470,9 NJ-35,Neptune,NJ,7753,Mc Donald's
471,666 Somerset St,New Brunswick,NJ,8901,Mc Donald's
472,1771 Springfield Ave,New Providence,NJ,7974,Mc Donald's
473,101 Clinton Ave # 115,Newark,NJ,7114,Mc Donald's
474,18350 NE 18th Rd,Miami,FL,33179,Mc Donald's
475,18340 SW 137th Ave,Miami,FL,33177,Mc Donald's
476,15715 SW 88th St,Miami,FL,33196,Mc Donald's
477,15710 SW 56th St,Miami,FL,33185,Mc Donald's
478,15295 SW 104th St,Miami,FL,33196,Mc Donald's
479,15096 NW 7th Ave,Miami,FL,33168,Mc Donald's
480,14699 SW 42nd St,Miami,FL,33175,Mc Donald's
481,14670 SW 8th St,Miami,FL,33184,Mc Donald's
482,14401 S Dixie Hwy,Miami,FL,33176,Mc Donald's
483,1400 SW 8th St,Miami,FL,33135,Mc Donald's
484,13708 SW 152nd St,Miami,FL,33177,Mc Donald's
485,13702 SW 56th St,Miami,FL,33175,Mc Donald's
486,13101 SW 88th St,Miami,FL,33186,Mc Donald's
487,12198 SW 117th Ave,Miami,FL,33186,Mc Donald's
488,12185 SW 26th St,Miami,FL,33175,Mc Donald's
489,11990 SW 8th St,Miami,FL,33184,Mc Donald's
490,11575 Quail Roost Dr,Miami,FL,33157,Mc Donald's
491,11500 N Kendall Dr,Miami,FL,33176,Mc Donald's
492,11301 SW 40th St,Miami,FL,33165,Mc Donald's
493,11207 SW 152nd St,Miami,FL,33157,Mc Donald's
494,11115 SW 132nd Ave,Miami,FL,33186,Mc Donald's
495,10775 NW 27th Ave,Miami,FL,33167,Mc Donald's
496,10530 W Flagler St,Miami,FL,33174,Mc Donald's
497,1020 W Flagler St,Miami,FL,33130,Mc Donald's
498,1 Miad Terminal J #2k33,Miami,FL,33122,Mc Donald's
499,148 Ferry St,Newark,NJ,7105,Mc Donald's
500,188 Springfield Ave,Newark,NJ,7103,Mc Donald's
501,334 W Market St,Newark,NJ,7107,Mc Donald's
502,561 Mccarter Hwy,Newark,NJ,7102,Mc Donald's
503,621 Broadway,Newark,NJ,7104,Mc Donald's
504,772 Broad St,Newark,NJ,7102,Mc Donald's
505,7944 Penn Sta,Newark,NJ,7102,Mc Donald's
506,872 Frelinghuysen Ave # 934,Newark,NJ,7114,Mc Donald's
507,915 18th Ave,Newark,NJ,7106,Mc Donald's
508,126 Water St,Newton,NJ,7860,Mc Donald's
509,8101 Tonnelle Ave,North Bergen,NJ,7047,Mc Donald's
510,1511 US Highway 1,North Brunswick,NJ,8902,Mc Donald's
511,600 Georges Rd,North Brunswick,NJ,8902,Mc Donald's
512,979 US Highway 1,North Brunswick,NJ,8902,Mc Donald's
513,240 Livingston St,Northvale,NJ,7647,Mc Donald's
514,5734 Berkshire Valley Rd # 230,Oak Ridge,NJ,7438,Mc Donald's
515,2000 State Route 35,Oakhurst,NJ,7755,Mc Donald's
516,1111 US Highway 9,Old Bridge,NJ,8857,Mc Donald's
517,145-147 Main St,Orange,NJ,7050,Mc Donald's
518,1 Garden State Plz,Paramus,NJ,7652,Mc Donald's
519,828 N State Rt 17,Paramus,NJ,7652,Mc Donald's
520,1155 US Highway 46,Parsippany,NJ,7054,Mc Donald's
521,3111 US Highway 46,Parsippany,NJ,7054,Mc Donald's
522,15-31 Central Ave,Passaic,NJ,7055,Mc Donald's
523,90 Dayton Ave,Passaic,NJ,7055,Mc Donald's
524,5367 W Atlantic Blvd,Margate,FL,33063,Mc Donald's
525,1207 45th St,Mangonia Park,FL,33407,Mc Donald's
526,15880 Orange Blvd,Loxahatchee,FL,33470,Mc Donald's
527,4830 N Federal Hwy,Lighthouse Point,FL,33064,Mc Donald's
528,5510 W Oakland Park Blvd,Lauderhill,FL,33313,Mc Donald's
529,1140 NW 40th Ave,Lauderhill,FL,33313,Mc Donald's
530,4398 N State Road 7,Lauderdale Lakes,FL,33319,Mc Donald's
531,1450 W Lantana Rd,Lantana,FL,33462,Mc Donald's
532,7793 Lake Worth Rd,Lake Worth,FL,33467,Mc Donald's
533,6342 Lantana Rd,Lake Worth,FL,33463,Mc Donald's
534,4614 Hypoluxo Rd,Lake Worth,FL,33463,Mc Donald's
535,2501 N Dixie Hwy,Lake Worth,FL,33460,Mc Donald's
536,130 N Congress Ave,Lake Park,FL,33403,Mc Donald's
537,6760 W Indiantown Rd,Jupiter,FL,33458,Mc Donald's
538,5480 Military Trl,Jupiter,FL,33458,Mc Donald's
539,181 N US Highway 1,Jupiter,FL,33477,Mc Donald's
540,10030 Indiantown Rd,Jupiter,FL,33478,Mc Donald's
541,30335 S Dixie Hwy,Homestead,FL,33033,Mc Donald's
542,2880 NE 8th St,Homestead,FL,33033,Mc Donald's
543,26601 S Dixie Hwy,Homestead,FL,33032,Mc Donald's
544,23351 SW 112th Ave,Homestead,FL,33032,Mc Donald's
545,13690 SW 288th St,Homestead,FL,33033,Mc Donald's
546,5835 Hollywood Blvd,Hollywood,FL,33021,Mc Donald's
547,4295 Davie Road Ext,Hollywood,FL,33024,Mc Donald's
548,3247 Hollywood Blvd,Hollywood,FL,33021,Mc Donald's
549,160 Market St,Paterson,NJ,7505,Mc Donald's
550,265 Crooks Ave,Paterson,NJ,7503,Mc Donald's
551,485 Broadway,Paterson,NJ,7514,Mc Donald's
552,835 Market St,Paterson,NJ,7513,Mc Donald's
553,633 New Brunswick Ave,Perth Amboy,NJ,8861,Mc Donald's
554,54 US Highway 46,Pine Brook,NJ,7058,Mc Donald's
555,1301 Stelton Rd,Piscataway,NJ,8854,Mc Donald's
556,1303 Centennial Ave,Piscataway,NJ,8854,Mc Donald's
557,1241 South Ave,Plainfield,NJ,7062,Mc Donald's
558,234 W Front St,Plainfield,NJ,7060,Mc Donald's
559,10 Schalks Crossing Rd,Plainsboro,NJ,8536,Mc Donald's
560,Ocean Ave & Route 35,Point Pleasant Beach,NJ,8742,Mc Donald's
561,2024 US Highway 1,Rahway,NJ,7065,Mc Donald's
562,846 State Rt 17,Ramsey,NJ,7446,Mc Donald's
563,130 NJ-10,Randolph,NJ,7869,Mc Donald's
564,1118 Main St,River Edge,NJ,7661,Mc Donald's
565,201 US Highway 46,Rockaway,NJ,7866,Mc Donald's
566,251 Saint George Ave,Roselle,NJ,7203,Mc Donald's
567,100 W Westfield Ave # 108,Roselle Park,NJ,7204,Mc Donald's
568,189 US Highway 46 # 1,Saddle Brook,NJ,7663,Mc Donald's
569,1967 US Highway 22,Scotch Plains,NJ,7076,Mc Donald's
570,400 Park Pl,Secaucus,NJ,7094,Mc Donald's
571,1065 Easton Ave,Somerset,NJ,8873,Mc Donald's
572,950 US Highway 22,Somerville,NJ,8876,Mc Donald's
573,970 US Highway 9,South Amboy,NJ,8879,Mc Donald's
574,2851 Sheridan St,Hollywood,FL,33020,Mc Donald's
575,2690 Stirling Rd,Hollywood,FL,33020,Mc Donald's
576,1900 N State Road 7,Hollywood,FL,33021,Mc Donald's
577,8505 NW 186th St,Hialeah,FL,33015,Mc Donald's
578,7155 W 4th Ave,Hialeah,FL,33014,Mc Donald's
579,5995 W 24th Ave,Hialeah,FL,33016,Mc Donald's
580,5851 NW 177th St,Hialeah,FL,33015,Mc Donald's
581,460 Hialeah Dr,Hialeah,FL,33010,Mc Donald's
582,4300 E 4th Ave,Hialeah,FL,33013,Mc Donald's
583,4185 W 16th Ave,Hialeah,FL,33012,Mc Donald's
584,3355 W 80th St,Hialeah,FL,33018,Mc Donald's
585,3350 W 18th Ave,Hialeah,FL,33012,Mc Donald's
586,330 W 29th St,Hialeah,FL,33012,Mc Donald's
587,17850 NW 57th Ave,Hialeah,FL,33015,Mc Donald's
588,1675 W 49th St,Hialeah,FL,33012,Mc Donald's
589,16701 NW 67th Ave,Hialeah,FL,33015,Mc Donald's
590,1660 W 68th St,Hialeah,FL,33014,Mc Donald's
591,1101 W 49th St,Hialeah,FL,33012,Mc Donald's
592,1021 E 10th Ave,Hialeah,FL,33010,Mc Donald's
593,835 W Hallandale Beach Blvd,Hallandale Beach,FL,33009,Mc Donald's
594,111 N Federal Hwy,Hallandale Beach,FL,33009,Mc Donald's
595,6581 Forest Hill Blvd,Greenacres,FL,33413,Mc Donald's
596,6000 Lake Worth Rd,Greenacres,FL,33463,Mc Donald's
597,950 W Commercial Blvd,Fort Lauderdale,FL,33309,Mc Donald's
598,929 NW 62nd St,Fort Lauderdale,FL,33309,Mc Donald's
599,909 Oak Tree Ave,South Plainfield,NJ,7080,Mc Donald's
600,Ushy 206 & Lake Lackawanna,Stanhope,NJ,7874,Mc Donald's
601,249 State Route 10 E,Succasunna,NJ,7876,Mc Donald's
602,588 Shrewsbury Ave,Tinton Falls,NJ,7701,Mc Donald's
603,1786 Hooper Ave,Toms River,NJ,8753,Mc Donald's
604,2360 Route 9,Toms River,NJ,8755,Mc Donald's
605,371 Route 37 E,Toms River,NJ,8753,Mc Donald's
606,42 Route 37 E,Toms River,NJ,8753,Mc Donald's
607,843 Fischer Blvd,Toms River,NJ,8753,Mc Donald's
608,916 Route 37 W,Toms River,NJ,8755,Mc Donald's
609,2404 US Highway 22 E,Union,NJ,7083,Mc Donald's
610,900 Springfield Rd,Union,NJ,7083,Mc Donald's
611,Vauxhall Plz,Union,NJ,7083,Mc Donald's
612,825 State Route 36,Union Beach,NJ,7735,Mc Donald's
613,3215 Kennedy Blvd,Union City,NJ,7087,Mc Donald's
614,1831 State Route 35,Wall Township,NJ,7719,Mc Donald's
615,741 Hamburg Tpke,Wayne,NJ,7470,Mc Donald's
616,372 Monmouth Rd,West Long Branch,NJ,7764,Mc Donald's
617,43a Marshall Hill Rd,West Milford,NJ,7480,Mc Donald's
618,5400 Bergenline Ave,West New York,NJ,7093,Mc Donald's
619,573 Northfield Ave,West Orange,NJ,7052,Mc Donald's
620,22 Juniper Dr,Whitehouse Station,NJ,8889,Mc Donald's
621,536 US Highway 22 W,Whitehouse Station,NJ,8889,Mc Donald's
622,330 US Highway 9 N,Woodbridge,NJ,7095,Mc Donald's
623,753 Saint George Ave,Woodbridge,NJ,7095,Mc Donald's
624,6360 N Federal Hwy,Fort Lauderdale,FL,33308,Mc Donald's
625,4032 N Ocean Blvd,Fort Lauderdale,FL,33308,Mc Donald's
626,300 E Sunrise Blvd,Fort Lauderdale,FL,33304,Mc Donald's
627,2700 N Federal Hwy,Fort Lauderdale,FL,33306,Mc Donald's
628,2700 Davie Blvd,Fort Lauderdale,FL,33312,Mc Donald's
629,27 W Broward Blvd,Fort Lauderdale,FL,33301,Mc Donald's
630,2410 W Broward Blvd,Fort Lauderdale,FL,33312,Mc Donald's
631,2300 W Sunrise Blvd,Fort Lauderdale,FL,33311,Mc Donald's
632,1630 S Federal Hwy,Fort Lauderdale,FL,33316,Mc Donald's
633,1600 S Andrews Ave,Fort Lauderdale,FL,33316,Mc Donald's
634,1201 W State Road 84 # 84,Fort Lauderdale,FL,33315,Mc Donald's
635,425 SE 1st Ave,Florida City,FL,33034,Mc Donald's
636,33501 S Dixie Hwy,Florida City,FL,33034,Mc Donald's
637,9501 NW 41st St,Doral,FL,33178,Mc Donald's
638,8651 NW 13th Ter,Doral,FL,33126,Mc Donald's
639,8403 NW 12th St,Doral,FL,33126,Mc Donald's
640,7570 NW 104th Ave,Doral,FL,33178,Mc Donald's
641,5700 NW 79th Ave,Doral,FL,33166,Mc Donald's
642,2405 NW 87th Ave,Doral,FL,33172,Mc Donald's
643,11390 NW 41st St,Doral,FL,33178,Mc Donald's
644,14529 S Military Trl,Delray Beach,FL,33484,Mc Donald's
645,1400 S Federal Hwy,Delray Beach,FL,33483,Mc Donald's
646,1220 Linton Blvd,Delray Beach,FL,33444,Mc Donald's
647,3901 W Hillsboro Blvd,Deerfield Beach,FL,33442,Mc Donald's
648,300 W Hillsboro Blvd,Deerfield Beach,FL,33441,Mc Donald's
649,327 Franklin Ave,Wyckoff,NJ,7481,Mc Donald's
650,5 Main St,Orange,NJ,7050,Mc Donald's Bbq
651,3832 White Plains Rd,Bronx,NY,10467,Mc Donald Shipper Air Freight
652,900 Broadway # 110,Amityville,NY,11701,Mc Donald's
653,2250 31st St,Astoria,NY,11105,Mc Donald's
654,3167 Steinway St,Astoria,NY,11103,Mc Donald's
655,1484 5th Ave,Bay Shore,NY,11706,Mc Donald's
656,20311 Northern Blvd,Bayside,NY,11361,Mc Donald's
657,605 Bedford Rd,Bedford Hills,NY,10507,Mc Donald's
658,3850 Veterans Memorial Hwy,Bohemia,NY,11716,Mc Donald's
659,762 Suffolk Ave,Brentwood,NY,11717,Mc Donald's
660,1620 Route 22,Brewster,NY,10509,Mc Donald's
661,1 W Mount Eden Ave,Bronx,NY,10452,Mc Donald's
662,101 E 170th St,Bronx,NY,10452,Mc Donald's
663,1101 E Tremont Ave,Bronx,NY,10460,Mc Donald's
664,1212 E Gun Hill Rd,Bronx,NY,10469,Mc Donald's
665,1515 Williamsbridge Rd,Bronx,NY,10461,Mc Donald's
666,1540 Westchester Ave,Bronx,NY,10472,Mc Donald's
667,16 Westchester Sq,Bronx,NY,10461,Mc Donald's
668,1600 Boston Rd,Bronx,NY,10460,Mc Donald's
669,1600 Bruckner Blvd,Bronx,NY,10473,Mc Donald's
670,1749 Dr Martin L King Jr Blvd,Bronx,NY,10453,Mc Donald's
671,1826 Eastchester Rd,Bronx,NY,10461,Mc Donald's
672,1865 Bruckner Blvd,Bronx,NY,10472,Mc Donald's
673,1982 Westchester Ave,Bronx,NY,10462,Mc Donald's
674,1205 S Military Trl,Deerfield Beach,FL,33442,Mc Donald's
675,6405 Nova Dr,Davie,FL,33317,Mc Donald's
676,5530 S State Road 7,Davie,FL,33314,Mc Donald's
677,4492 Weston Rd,Davie,FL,33331,Mc Donald's
678,1600 S State Road 7 # 954,Davie,FL,33317,Mc Donald's
679,13642 W State Road 84,Davie,FL,33325,Mc Donald's
680,11200 W State Road 84,Davie,FL,33325,Mc Donald's
681,1310 S Federal Hwy,Dania,FL,33004,Mc Donald's
682,7441 SW 187th St,Cutler Bay,FL,33157,Mc Donald's Corporate Office
683,20315 Old Cutler Rd,Cutler Bay,FL,33189,Mc Donald's
684,10855 Caribbean Blvd,Cutler Bay,FL,33189,Mc Donald's
685,9180 Wiles Rd,Coral Springs,FL,33067,Mc Donald's
686,7751 W Sample Rd,Coral Springs,FL,33065,Mc Donald's
687,630 N University Dr,Coral Springs,FL,33071,Mc Donald's
688,5741 Coral Ridge Dr,Coral Springs,FL,33076,Mc Donald's
689,4480 N State Road 7,Coral Springs,FL,33073,Mc Donald's
690,11655 W Sample Rd,Coral Springs,FL,33065,Mc Donald's
691,3280 Coral Way,Coral Gables,FL,33145,Mc Donald's
692,1148 S Dixie Hwy,Coral Gables,FL,33146,Mc Donald's
693,5986 S Flamingo Rd,Cooper City,FL,33330,Mc Donald's
694,10260 Griffin Rd,Cooper City,FL,33328,Mc Donald's
695,6440 N State Road 7,Coconut Creek,FL,33073,Mc Donald's
696,4200 W Sample Rd,Coconut Creek,FL,33073,Mc Donald's
697,18250 NW 27th Ave,Carol City,FL,33056,Mc Donald's
698,9915 S Jog Rd,Boynton Beach,FL,33437,Mc Donald's
699,2010 Bartow Ave,Bronx,NY,10475,Mc Donald's
700,2065 Jerome Ave,Bronx,NY,10453,Mc Donald's
701,2170 White Plains Rd,Bronx,NY,10462,Mc Donald's
702,2505 Southern Blvd,Bronx,NY,10458,Mc Donald's
703,2516 White Plains Rd,Bronx,NY,10467,Mc Donald's
704,2630 Jerome Ave,Bronx,NY,10468,Mc Donald's
705,279 E 149th St,Bronx,NY,10451,Mc Donald's
706,2870 3rd Ave,Bronx,NY,10455,Mc Donald's
707,300 E 204th St,Bronx,NY,10467,Mc Donald's
708,3279 3rd Ave,Bronx,NY,10456,Mc Donald's
709,3509 Webster Ave,Bronx,NY,10467,Mc Donald's
710,3550 Conner St,Bronx,NY,10475,Mc Donald's
711,36 W Fordham Rd,Bronx,NY,10468,Mc Donald's
712,3660 E Tremont Ave,Bronx,NY,10465,Mc Donald's
713,372 E Fordham Rd,Bronx,NY,10458,Mc Donald's
714,4174 White Plains Rd,Bronx,NY,10466,Mc Donald's
715,51-67 161st St,Bronx,NY,10451,Mc Donald's
716,5765 Broadway,Bronx,NY,10463,Mc Donald's
717,597-99 Grand Concourse,Bronx,NY,10451,Mc Donald's
718,599 E Tremont Ave,Bronx,NY,10457,Mc Donald's
719,724 E 241st St,Bronx,NY,10470,Mc Donald's
720,839 Westchester Ave,Bronx,NY,10455,Mc Donald's
721,86 E 167th St,Bronx,NY,10452,Mc Donald's
722,875 Garrison Ave,Bronx,NY,10474,Mc Donald's
723,925 Hunts Point Ave,Bronx,NY,10459,Mc Donald's
724,Address,City,State,ZIP Code,Company Name
725,18995 Biscayne Blvd,Aventura,FL,33180,Publix Super Market
726,2952 Aventura Blvd,Aventura,FL,33180,Publix Super Market
727,1001 S Federal Hwy,Boca Raton,FL,33432,Publix Super Market
728,11650 W Palmetto Park Rd,Boca Raton,FL,33428,Publix Super Market
729,1339 W Palmetto Park Rd,Boca Raton,FL,33486,Publix Super Market
730,1968 NE 5th Ave # 561,Boca Raton,FL,33431,Publix Super Market
731,21230 Saint Andrews Blvd,Boca Raton,FL,33433,Publix Super Market
732,22973 State Road 7,Boca Raton,FL,33428,Publix Super Market
733,3003 W Yamato Rd # C9,Boca Raton,FL,33434,Publix Super Market
734,4141 N Federal Hwy,Boca Raton,FL,33431,Publix Super Market
735,5050 Champion Blvd,Boca Raton,FL,33496,Publix Super Market
736,7060 W Palmetto Park Rd,Boca Raton,FL,33433,Publix Super Market
737,7431 N Federal Hwy,Boca Raton,FL,33487,Publix Super Market
738,9720 Clint Moore Rd,Boca Raton,FL,33496,Publix Super Market
739,9846 Glades Rd,Boca Raton,FL,33434,Publix Super Market
740,1005 Gateway Blvd,Boynton Beach,FL,33426,Publix Super Market
741,10935 S Jog Rd,Boynton Beach,FL,33437,Publix Super Market
742,12425 Hagen Ranch Rd,Boynton Beach,FL,33437,Publix Super Market
743,133 N Congress Ave,Boynton Beach,FL,33426,Publix Super Market
744,3775 W Woolbright Rd,Boynton Beach,FL,33436,Publix Super Market
745,4770 N Congress Ave,Boynton Beach,FL,33426,Publix Super Market
746,4966 Le Chalet Blvd,Boynton Beach,FL,33436,Publix Super Market
747,501 SE 18th Ave,Boynton Beach,FL,33435,Publix Super Market
748,6627 Boynton Beach Blvd # 561,Boynton Beach,FL,33437,Publix Super Market
749,8340 S Jog Rd,Boynton Beach,FL,33472,Publix Super Market
750,4075 N Haverhill Rd,West Palm Beach,FL,33417,Publix Super Market
751,500 Belvedere Rd,West Palm Beach,FL,33405,Publix Super Market
752,6820 Okeechobee Blvd,West Palm Beach,FL,33411,Publix Super Market
753,828 Southern Blvd,West Palm Beach,FL,33405,Publix Super Market
754,831 Village Blvd # 561,West Palm Beach,FL,33409,Publix Super Market
755,8989 Okeechobee Blvd,West Palm Beach,FL,33411,Publix Super Market
756,926 S Military Trl,West Palm Beach,FL,33415,Publix Super Market
757,1170 Weston Rd,Weston,FL,33326,Publix Super Market
758,1601 Promenade Blvd,Weston,FL,33326,Publix Super Market
759,2465 Glades Cir,Weston,FL,33327,Publix Super Market
760,294 Indian Trce,Weston,FL,33326,Publix Super Market
761,4567 Weston Rd,Weston,FL,33331,Publix Super Market
762,100 W Oakland Park Blvd,Wilton Manors,FL,33311,Publix Super Market
763,2633 N Dixie Hwy,Wilton Manors,FL,33334,Publix Super Market
764,100 NE 183rd St,Miami,FL,33179,Publix Super Markets Div Ofc
765,555 Channelside Dr,Tampa,FL,33062,Publix Super Markets Inc
766,8780 Boynton Beach Blvd,Boynton Beach,FL,33472,Publix Super Market
767,4760 W Hillsboro Blvd,Coconut Creek,FL,33073,Publix Super Market
768,4849 Coconut Creek Pkwy,Coconut Creek,FL,33063,Publix Super Market
769,5365 Lyons Rd,Coconut Creek,FL,33073,Publix Super Market
770,6570 N State Road 7,Coconut Creek,FL,33073,Publix Super Market
771,10018 Griffin Rd,Cooper City,FL,33328,Publix Super Market
772,5656 S Flamingo Rd,Cooper City,FL,33330,Publix Super Market
773,1401 Monza Ave,Coral Gables,FL,33146,Publix Super Market
774,1500 S Douglas Rd,Coral Gables,FL,33134,Publix Super Market
775,2551 S Le Jeune Rd,Coral Gables,FL,33134,Publix Super Market
776,10701 Wiles Rd,Coral Springs,FL,33076,Publix Super Market
777,11600 W Sample Rd,Coral Springs,FL,33065,Publix Super Market
778,1305 N University Dr,Coral Springs,FL,33071,Publix Super Market
779,1400 Coral Ridge Dr,Coral Springs,FL,33071,Publix Super Market
780,2201 N University Dr,Coral Springs,FL,33071,Publix Super Market
781,5950 Coral Ridge Dr,Coral Springs,FL,33076,Publix Super Market
782,6270 W Sample Rd,Coral Springs,FL,33067,Publix Super Market
783,8160 Wiles Rd,Coral Springs,FL,33067,Publix Super Market
784,20425 Old Cutler Rd,Cutler Bay,FL,33189,Publix Super Market
785,402 E Dania Beach Blvd,Dania Beach,FL,33004,Publix Super Market
786,13700 W State Road 84,Davie,FL,33325,Publix Super Market
787,4701 S University Dr,Davie,FL,33328,Publix Super Market
788,4901 Volunteer Rd,Davie,FL,33330,Publix Super Market
789,5997 Stirling Rd,Davie,FL,33314,Publix Super Market
790,6525 Nova Dr,Davie,FL,33317,Publix Super Market
791,8842 W State Road 84,Davie,FL,33324,Publix Super Market
792,1337 S Military Trl,Deerfield Beach,FL,33442,Publix Super Market
793,150 S Federal Hwy,Deerfield Beach,FL,33441,Publix Super Market
794,3740 W Hillsboro Blvd,Deerfield Beach,FL,33442,Publix Super Market
795,13860 S Jog Rd,Delray Beach,FL,33446,Publix Super Market
796,1538 S Federal Hwy,Delray Beach,FL,33483,Publix Super Market
797,16130 S Jog Rd,Delray Beach,FL,33446,Publix Super Market
798,4771 W Atlantic Ave,Delray Beach,FL,33445,Publix Super Market
799,555 NE 5th Ave,Delray Beach,FL,33483,Publix Super Market
800,7375 Atlantic Ave,Delray Beach,FL,33446,Publix Super Market
801,9239 Atlantic Ave,Delray Beach,FL,33446,Publix Super Market
802,10755 NW 58th St,Doral,FL,33178,Publix Super Market
803,7550 NW 104th Ave,Doral,FL,33178,Publix Super Market
804,8455 NW 53rd Ter,Doral,FL,33166,Publix Super Market
805,9755 NW 41st St,Doral,FL,33178,Publix Super Market
806,1415 E Sunrise Blvd,Fort Lauderdale,FL,33304,Publix Super Market
807,1940 Cordova Rd,Fort Lauderdale,FL,33316,Publix Super Market
808,19441 Sheridan St,Fort Lauderdale,FL,33332,Publix Super Market
809,2501 E Sunrise Blvd,Fort Lauderdale,FL,33304,Publix Super Market
810,3102 Griffin Rd,Fort Lauderdale,FL,33312,Publix Super Market
811,3400 N Federal Hwy,Fort Lauderdale,FL,33306,Publix Super Market
812,3500 Davie Blvd,Fort Lauderdale,FL,33312,Publix Super Market
813,601 S Andrews Ave,Fort Lauderdale,FL,33301,Publix Super Market
814,4849 S Military Trl,Greenacres,FL,33463,Publix Super Market
815,6790 Forest Hill Blvd,Greenacres,FL,33413,Publix Super Market
816,1400 E Hallandale Beach Blvd,Hallandale Beach,FL,33009,Publix Super Market
817,1290 W 68th St,Hialeah,FL,33014,Publix Super Market
818,155 E 2nd Ave,Hialeah,FL,33010,Publix Super Market
819,1585 W 49th St,Hialeah,FL,33012,Publix Super Market
820,18496 NW 67th Ave,Hialeah,FL,33015,Publix Super Market
821,2414 W 60th St,Hialeah,FL,33016,Publix Super Market
822,3251 E 2nd Ave,Hialeah,FL,33013,Publix Super Market
823,3339 W 80th St,Hialeah,FL,33018,Publix Super Market
824,8601 NW 186th St,Hialeah,FL,33015,Publix Super Market
825,1700 Sheridan St,Hollywood,FL,33020,Publix Super Market
826,1740 Polk St,Hollywood,FL,33020,Publix Super Market
827,3251 Hollywood Blvd,Hollywood,FL,33021,Publix Super Market
828,5211 Sheridan St,Hollywood,FL,33021,Publix Super Market
829,6901 Taft St,Hollywood,FL,33024,Publix Super Market
830,23300 SW 112th Ave,Homestead,FL,33032,Publix Super Market
831,2950 NE 8th St,Homestead,FL,33033,Publix Super Market
832,3060 NE 41st Ter,Homestead,FL,33033,Publix Super Market
833,891 N Homestead Blvd,Homestead,FL,33030,Publix Super Market
834,10142 Indiantown Rd,Jupiter,FL,33478,Publix Super Market
835,123 Honeybell Way,Jupiter,FL,33458,Publix Super Market
836,17400 N Alternate A1a,Jupiter,FL,33477,Publix Super Market
837,4060 S US Highway 1,Jupiter,FL,33477,Publix Super Market
838,5500 Military Trl # 25,Jupiter,FL,33458,Publix Super Market
839,6330 W Indiantown Rd,Jupiter,FL,33458,Publix Super Market
840,95 S US Highway 1,Jupiter,FL,33477,Publix Super Market
841,214 N Dixie Hwy,Lake Worth,FL,33460,Publix Super Market
842,5970 S Jog Rd,Lake Worth,FL,33467,Publix Super Market
843,7745 Lake Worth Rd,Lake Worth,FL,33467,Publix Super Market
844,8899 Hypoluxo Rd,Lake Worth,FL,33467,Publix Super Market
845,1589 W Lantana Rd,Lantana,FL,33462,Publix Super Market
846,262 S Ocean Blvd,Lantana,FL,33462,Publix Super Market
847,4703 N Ocean Dr,Lauderdale By The Sea,FL,33308,Publix Super Market
848,5855 W Oakland Park Blvd # 203,Lauderhill,FL,33313,Publix Super Market
849,2450 N Federal Hwy,Lighthouse Point,FL,33064,Publix Super Market
850,3700 N Federal Hwy,Lighthouse Point,FL,33064,Publix Super Market
851,7050 Seminole Pratt Whitney Rd,Loxahatchee,FL,33470,Publix Super Market
852,15625 Southern Blvd,Loxahatchee Groves,FL,33470,Publix Super Market
853,7230 W Atlantic Blvd,Margate,FL,33063,Publix Super Market
854,10201 Hammocks Blvd # 111,Miami,FL,33196,Publix Super Market
855,106 Ponce DE Leon Blvd,Miami,FL,33135,Publix Super Market
856,11495 SW 40th St,Miami,FL,33165,Publix Super Market
857,11750 SW 104th St,Miami,FL,33186,Publix Super Market
858,121 SW 22nd Ave,Miami,FL,33135,Publix Super Market
859,12100 SW 127th Ave,Miami,FL,33186,Publix Super Market
860,13001 SW 112th St,Miami,FL,33186,Publix Super Market
861,13005 SW 89th Pl,Miami,FL,33176,Publix Super Market
862,134 SW 13th St,Miami,FL,33130,Publix Super Market
863,13735 SW 152nd St,Miami,FL,33177,Publix Super Market
864,13820 SW 88th St,Miami,FL,33186,Publix Super Market
865,13850 SW 8th St,Miami,FL,33184,Publix Super Market
866,13890 SW 56th St,Miami,FL,33175,Publix Super Market
867,14601 S Dixie Hwy,Miami,FL,33176,Publix Super Market
868,14630 SW 26th St,Miami,FL,33175,Publix Super Market
869,1525 SW 107th Ave,Miami,FL,33174,Publix Super Market
870,15750 SW 72nd St,Miami,FL,33193,Publix Super Market
871,15755 SW 56th St,Miami,FL,33185,Publix Super Market
872,15771 SW 152nd St,Miami,FL,33187,Publix Super Market
873,16800 SW 88th St,Miami,FL,33196,Publix Super Market
874,1700 NE Miami Gardens Dr,Miami,FL,33179,Publix Super Market
875,1776 Biscayne Blvd,Miami,FL,33132,Publix Super Market
876,18280 SW 147th Ave,Miami,FL,33187,Publix Super Market
877,19955 NW 2nd Ave,Miami,FL,33169,Publix Super Market
878,20201 SW 127th Ave,Miami,FL,33177,Publix Super Market
879,20711 S Dixie Hwy,Miami,FL,33189,Publix Super Market
880,2270 SW 27th Ave,Miami,FL,33145,Publix Super Market
881,311 SW 7th St,Miami,FL,33130,Publix Super Market
882,4260 SW 152nd Ave,Miami,FL,33185,Publix Super Market
883,4870 Biscayne Blvd,Miami,FL,33137,Publix Super Market
884,5715 NW 7th St,Miami,FL,33126,Publix Super Market
885,7805 Bird Rd,Miami,FL,33155,Publix Super Market
886,8250 Mills Dr,Miami,FL,33183,Publix Super Market
887,8341 W Flagler St,Miami,FL,33144,Publix Super Market
888,8680 Coral Way,Miami,FL,33155,Publix Super Market
889,9041 SW 107th Ave,Miami,FL,33176,Publix Super Market
890,9105 S Dadeland Blvd,Miami,FL,33156,Publix Super Market
891,911 SW 1st Ave,Miami,FL,33130,Publix Super Market
892,9420 SW 56th St,Miami,FL,33165,Publix Super Market
893,9510 SW 160th St,Miami,FL,33157,Publix Super Market
894,9951 W Flagler St # 305,Miami,FL,33174,Publix Super Market
895,1045 Dade Blvd,Miami Beach,FL,33139,Publix Super Market
896,1100 6th St,Miami Beach,FL,33139,Publix Super Market
897,1920 West Ave,Miami Beach,FL,33139,Publix Super Market
898,6876 Collins Ave,Miami Beach,FL,33141,Publix Super Market
899,15000 Miami Lakes Dr E,Miami Lakes,FL,33014,Publix Super Market
900,9050 Biscayne Blvd,Miami Shores,FL,33138,Publix Super Market
901,11000 Pembroke Rd,Miramar,FL,33025,Publix Super Market
902,12681 Miramar Pkwy,Miramar,FL,33027,Publix Super Market
903,14375 Miramar Pkwy,Miramar,FL,33027,Publix Super Market
904,18409 Miramar Pkwy,Miramar,FL,33029,Publix Super Market
905,6890 Miramar Pkwy # A,Miramar,FL,33023,Publix Super Market
906,9951 Miramar Pkwy,Miramar,FL,33025,Publix Super Market
907,1297 S State Road 7,North Lauderdale,FL,33068,Publix Super Market
908,8140 W Mcnab Rd,North Lauderdale,FL,33068,Publix Super Market
909,12800 Biscayne Blvd,North Miami,FL,33181,Publix Super Market
910,12855 NE 6th Ave,North Miami,FL,33161,Publix Super Market
911,14641 Biscayne Blvd,North Miami,FL,33181,Publix Super Market
912,850 N Miami Beach Blvd,North Miami Beach,FL,33162,Publix Super Market
913,374 Northlake Blvd,North Palm Beach,FL,33408,Publix Super Market
914,1003 E Commercial Blvd,Oakland Park,FL,33334,Publix Super Market
915,950 E Commercial Blvd,Oakland Park,FL,33334,Publix Super Market
916,135 Bradley Pl,Palm Beach,FL,33480,Publix Super Market
917,10913 N Military Trl,Palm Beach Gardens,FL,33410,Publix Super Market
918,11566 US Highway 1,Palm Beach Gardens,FL,33408,Publix Super Market
919,4101 Hood Rd,Palm Beach Gardens,FL,33410,Publix Super Market
920,4200 Northlake Blvd,Palm Beach Gardens,FL,33410,Publix Super Market
921,5410 Donald Ross Rd,Palm Beach Gardens,FL,33418,Publix Super Market
922,6251 Pga Blvd,Palm Beach Gardens,FL,33418,Publix Super Market
923,9900 Alternate A1a,Palm Beach Gardens,FL,33410,Publix Super Market
924,1700 S Congress Ave,Palm Springs,FL,33461,Publix Super Market
925,8095 N University Dr,Parkland,FL,33067,Publix Super Market
926,10450 Pines Blvd,Pembroke Pines,FL,33026,Publix Super Market
927,15729 Pines Blvd,Pembroke Pines,FL,33027,Publix Super Market
928,1657 N Hiatus Rd,Pembroke Pines,FL,33026,Publix Super Market
929,170 S Flamingo Rd,Pembroke Pines,FL,33027,Publix Super Market
930,18341 Pines Blvd,Pembroke Pines,FL,33029,Publix Super Market
931,600 N University Dr,Pembroke Pines,FL,33024,Publix Super Market
932,9359 Sheridan St,Pembroke Pines,FL,33024,Publix Super Market
933,13401 S Dixie Hwy,Pinecrest,FL,33156,Publix Super Market
934,10065 Cleary Blvd,Plantation,FL,33324,Publix Super Market
935,1181 S University Dr,Plantation,FL,33324,Publix Super Market
936,225 S Flamingo Rd,Plantation,FL,33325,Publix Super Market
937,550 N Pine Island Rd,Plantation,FL,33324,Publix Super Market
938,6921 W Broward Blvd,Plantation,FL,33317,Publix Super Market
939,8101 W Sunrise Blvd,Plantation,FL,33322,Publix Super Market
940,1140 SW 36th Ave,Pompano Beach,FL,33069,Publix Super Market
941,1405 S Federal Hwy,Pompano Beach,FL,33062,Publix Super Market
942,2511 E Atlantic Blvd,Pompano Beach,FL,33062,Publix Super Market
943,411 S Cypress Rd,Pompano Beach,FL,33060,Publix Super Market
944,228 E Blue Heron Blvd,Riviera Beach,FL,33404,Publix Super Market
945,1180 Royal Palm Beach Blvd,Royal Palm Beach,FL,33411,Publix Super Market
946,11977 Southern Blvd,Royal Palm Beach,FL,33411,Publix Super Market
947,127 S State Road 7,Royal Palm Beach,FL,33414,Publix Super Market
948,15801 Sheridan St,Southwest Ranches,FL,33331,Publix Super Market
949,18320 Collins Ave,Sunny Isles Beach,FL,33160,Publix Super Market
950,10155 W Oakland Park Blvd,Sunrise,FL,33351,Publix Super Market
951,12500 W Sunrise Blvd,Sunrise,FL,33323,Publix Super Market
952,9300 W Commercial Blvd,Sunrise,FL,33351,Publix Super Market
953,9400 Harding Ave,Surfside,FL,33154,Publix Super Market
954,,Tamarac,FL,33319,Publix Super Market
955,4121 W Commercial Blvd,Tamarac,FL,33319,Publix Super Market
956,5881 N University Dr,Tamarac,FL,33321,Publix Super Market
957,8245 NW 88th Ave,Tamarac,FL,33321,Publix Super Market
958,500 N US Highway 1,Tequesta,FL,33469,Publix Super Market
959,11950 Forest Hill Blvd,Wellington,FL,33414,Publix Super Market
960,13880 Wellington Trce # 561,Wellington,FL,33414,Publix Super Market
961,9855 Lake Worth Rd,Wellington,FL,33467,Publix Super Market
962,1500 SW 57th Ave,West Miami,FL,33144,Publix Super Market
963,10130 Northlake Blvd # 222,West Palm Beach,FL,33412,Publix Super Market
964,2895 N Military Trl,West Palm Beach,FL,33409,Publix Super Market
965,375 S Rosemary Ave,West Palm Beach,FL,33401,Publix Super Market
966,Address,City,State,ZIP Code,Company Name
967,3801 W Flagler St,Coral Gables,FL,33134,Sedano's
968,4801 SW 8th St,Coral Gables,FL,33134,Sedano's
969,10780 NW 58th St,Doral,FL,33178,Sedano's
970,1690 W 68th St,Hialeah,FL,33014,Sedano's
971,18600 NW 87th Ave,Hialeah,FL,33015,Sedano's
972,2301 W 52nd St,Hialeah,FL,33016,Sedano's
973,3925 Palm Ave,Hialeah,FL,33012,Sedano's
974,3929 Palm Ave,Hialeah,FL,33012,Sedano's
975,3950 W 12th Ave,Hialeah,FL,33012,Sedano's
976,5360 W 16th Ave,Hialeah,FL,33012,Sedano's
977,840 E 41st St,Hialeah,FL,33013,Sedano's
978,950 E 4th Ave,Hialeah,FL,33010,Sedano's
979,2319 N State Road 7,Hollywood,FL,33021,Sedano's
980,11234 NW 20th St,Miami,FL,33172,Sedano's
981,12175 SW 26th St,Miami,FL,33175,Sedano's
982,13659 SW 26th St,Miami,FL,33175,Sedano's
983,13794 SW 152nd St,Miami,FL,33177,Sedano's
984,14655 SW 56th St,Miami,FL,33175,Sedano's
985,16255 SW 88th St,Miami,FL,33196,Sedano's
986,6709 W Flagler St,Miami,FL,33144,Sedano's
987,8601 Bird Rd,Miami,FL,33155,Sedano's
988,9688 SW 24th St,Miami,FL,33165,Sedano's
989,7208 Southgate Blvd,North Lauderdale,FL,33068,Sedano's
990,10333 Pines Blvd,Pembroke Pines,FL,33026,Sedano's
991,8500 SW 8th St # 238,Miami,FL,33144,Sedano's Group
992,3140 W 76th St,Hialeah,FL,33018,Sedano's Supermarket
993,3100 W 76th St,Hialeah,FL,33018,Sedanos Management Inc
994,3140 W 76th St,Hialeah,FL,33018,Sedanos Pharmacy #28
995,Address,City,State,ZIP Code,Company Name
996,248 5th Ave,Brooklyn,NY,11215,Al Di LA Trattoria
997,607 Carroll St,Brooklyn,NY,11215,Al Di LA Vino
998,1851 Sunrise Hwy,Bay Shore,NY,11706,ALDI
999,1750 E Gun Hill Rd # B,Bronx,NY,10469,ALDI
1000,3006 3rd Ave,Bronx,NY,10455,ALDI
1001,5532 Broadway,Bronx,NY,10463,ALDI
1002,3785 Nostrand Ave,Brooklyn,NY,11235,ALDI
1003,528 Gateway Dr # 9,Brooklyn,NY,11239,ALDI
1004,139 Alexander Ave,Lake Grove,NY,11755,ALDI
1005,481 Park Ave,Lindenhurst,NY,11757,ALDI
1006,195 E Route 59,Nanuet,NY,10954,ALDI
1007,517 E 117th St # 202,New York,NY,10035,ALDI
1008,1251 Deer Park Ave,North Babylon,NY,11703,ALDI
1009,367 N Service Rd,Patchogue,NY,11772,ALDI
1010,6111 Junction Blvd,Rego Park,NY,11374,ALDI
1011,1773 Old Country Rd,Riverhead,NY,11901,ALDI
1012,614 Middle Country Rd,Selden,NY,11784,ALDI
1013,156 S Liberty Dr,Stony Point,NY,10980,ALDI
1014,750 W Sunrise Hwy,Valley Stream,NY,11581,ALDI
1015,21759 State Road 7,Boca Raton,FL,33428,ALDI
1016,3452 W Boynton Beach Blvd,Boynton Beach,FL,33436,ALDI
1017,6198 W Sample Rd,Coral Springs,FL,33067,ALDI
1018,19650 S Dixie Hwy,Cutler Bay,FL,33157,ALDI
1019,700 Stirling Rd,Dania Beach,FL,33004,ALDI
1020,4298 S University Dr,Davie,FL,33328,ALDI
1021,3825 W Hillsboro Blvd,Deerfield Beach,FL,33442,ALDI
1022,747 S Federal Hwy,Deerfield Beach,FL,33441,ALDI
1023,4801 Linton Blvd # 14a,Delray Beach,FL,33445,ALDI
1024,5875 NW 105th Ct # 100,Doral,FL,33178,ALDI
1025,33290 S Dixie Hwy,Florida City,FL,33034,ALDI
1026,3401 S Jog Rd,Greenacres,FL,33467,ALDI
1027,1460 W 49th St,Hialeah,FL,33012,ALDI
1028,7800 W 33rd Ave # 2,Hialeah,FL,33018,ALDI
1029,4298 N University Dr,Hollywood,FL,33024,ALDI
1030,775 S State Road 7,Hollywood,FL,33023,ALDI
1031,6707 W Indiantown Rd # 45a,Jupiter,FL,33458,ALDI
1032,220 N Congress Ave,Lake Park,FL,33403,ALDI
1033,4730 Hypoluxo Rd,Lake Worth,FL,33463,ALDI
1034,3301 N State Road 7,Lauderdale Lakes,FL,33319,ALDI
1035,12010 SW 8th St,Miami,FL,33184,ALDI
1036,1290 NE 108th St,Miami,FL,33161,ALDI
1037,13801 SW 120th St,Miami,FL,33186,ALDI
1038,15033 S Dixie Hwy,Miami,FL,33176,ALDI
1039,16500 SW 88th St,Miami,FL,33196,ALDI
1040,8621 Coral Way,Miami,FL,33155,ALDI
1041,19100 NW 27th Ave,Miami Gardens,FL,33056,ALDI
1042,16367 NW 57th Ave,Miami Lakes,FL,33014,ALDI
1043,1180 S State Road 7,North Lauderdale,FL,33068,ALDI
1044,735 NE 167th St,North Miami Beach,FL,33162,ALDI
1045,1707 E Commercial Blvd,Oakland Park,FL,33334,ALDI
1046,3403 S Congress Ave,Palm Springs,FL,33461,ALDI
1047,11330 Pines Blvd,Pembroke Pines,FL,33026,ALDI
1048,18430 Pines Blvd,Pembroke Pines,FL,33029,ALDI
1049,12190 W Sunrise Blvd,Plantation,FL,33323,ALDI
1050,960 N Federal Hwy,Pompano Beach,FL,33062,ALDI
1051,1111 N State Road 7,Royal Palm Beach,FL,33411,ALDI
1052,7050 N University Dr,Tamarac,FL,33321,ALDI
1053,2481 Okeechobee Blvd,West Palm Beach,FL,33409,ALDI
1054,Address,City,State,ZIP Code,Company Name
1055,1104 Sunrise Hwy,Amityville,NY,11701,Burger King
1056,3310 21st St,Astoria,NY,11106,Burger King
1057,3310 Astoria Blvd,Astoria,NY,11103,Burger King
1058,335 E Main St,Bay Shore,NY,11706,Burger King
1059,22210 Northern Blvd,Bayside,NY,11361,Burger King
1060,4201 Hempstead Tpke,Bethpage,NY,11714,Burger King
1061,32 Montauk Hwy,Blue Point,NY,11715,Burger King
1062,5141 Sunrise Hwy,Bohemia,NY,11716,Burger King
1063,1519 Route 22,Brewster,NY,10509,Burger King
1064,Route 22,Brewster,NY,10509,Burger King
1065,1380 Jerome Ave,Bronx,NY,10452,Burger King
1066,1590 Hutchinson River Pkwy # 2,Bronx,NY,10461,Burger King
1067,1607 Westchester Ave # Radiosh,Bronx,NY,10472,Burger King
1068,1851 Bruckner Blvd,Bronx,NY,10472,Burger King
1069,215 E Fordham Rd,Bronx,NY,10458,Burger King
1070,216 E 161st St,Bronx,NY,10451,Burger King
1071,2200 Bartow Ave,Bronx,NY,10475,Burger King
1072,3261 Westchester Ave,Bronx,NY,10461,Burger King
1073,3440 Jerome Ave,Bronx,NY,10467,Burger King
1074,3500 Boston Rd,Bronx,NY,10469,Burger King
1075,400 E Tremont Ave,Bronx,NY,10457,Burger King
1076,4275 White Plains Rd,Bronx,NY,10466,Burger King
1077,521 E 149th St,Bronx,NY,10455,Burger King
1078,557 Grand Concourse # 2,Bronx,NY,10451,Burger King
1079,60 Metropolitan Oval,Bronx,NY,10462,Burger King
1080,6007 Broadway,Bronx,NY,10471,Burger King
1081,961 E 174th St # 18,Bronx,NY,10460,Burger King
1082,977 Southern Blvd,Bronx,NY,10459,Burger King
1083,13 Hillel Pl,Brooklyn,NY,11210,Burger King
1084,1412 Myrtle Ave,Brooklyn,NY,11237,Burger King
1085,1663 Linden Blvd,Brooklyn,NY,11212,Burger King
1086,1702 Neptune Ave,Brooklyn,NY,11224,Burger King
1087,1727 Bedford Ave,Brooklyn,NY,11225,Burger King
1088,1772 Rockaway Pkwy,Brooklyn,NY,11236,Burger King
1089,1935 Coney Island Ave,Brooklyn,NY,11230,Burger King
1090,1940 Linden Blvd,Brooklyn,NY,11207,Burger King
1091,2164 86th St,Brooklyn,NY,11214,Burger King
1092,2228 Gerritsen Ave,Brooklyn,NY,11229,Burger King
1093,2343 Utica Ave # 1,Brooklyn,NY,11234,Burger King
1094,2425 Coney Island Ave,Brooklyn,NY,11223,Burger King
1095,2773 Nostrand Ave,Brooklyn,NY,11210,Burger King
1096,2816 Atlantic Ave,Brooklyn,NY,11207,Burger King
1097,2848 Church Ave # 1,Brooklyn,NY,11226,Burger King
1098,292 Utica Ave,Brooklyn,NY,11213,Burger King
1099,2960 86th St,Brooklyn,NY,11223,Burger King
1100,3301 Fort Hamilton Pkwy,Brooklyn,NY,11218,Burger King
1101,4101 4th Ave,Brooklyn,NY,11232,Burger King
1102,417 Fulton St,Brooklyn,NY,11201,Burger King
1103,463 Conduit Blvd,Brooklyn,NY,11208,Burger King
1104,497 Meeker Ave,Brooklyn,NY,11222,Burger King
1105,5212 5th Ave # 15,Brooklyn,NY,11220,Burger King
1106,522 Fulton St # 4,Brooklyn,NY,11201,Burger King
1107,6201 Avenue U,Brooklyn,NY,11234,Burger King
1108,624 Conduit Blvd,Brooklyn,NY,11208,Burger King
1109,6413 14th Ave,Brooklyn,NY,11219,Burger King
1110,736 Broadway,Brooklyn,NY,11206,Burger King
1111,8002 Foster Ave,Brooklyn,NY,11236,Burger King
1112,8401 Flatlands Ave,Brooklyn,NY,11236,Burger King
1113,8516 5th Ave,Brooklyn,NY,11209,Burger King
1114,9006 Church Ave,Brooklyn,NY,11236,Burger King
1115,971 Flatbush Ave,Brooklyn,NY,11226,Burger King
1116,1880 Middle Country Rd,Centereach,NY,11720,Burger King
1117,121 W Suffolk Ave,Central Islip,NY,11722,Burger King
1118,1340 Motor Pkwy,Central Islip,NY,11749,Burger King
1119,6021 Jericho Tpke,Commack,NY,11725,Burger King
1120,1201 Sunrise Hwy,Copiague,NY,11726,Burger King
1121,281 Middle Country Rd,Coram,NY,11727,Burger King
1122,3712 Junction Blvd,Corona,NY,11368,Burger King
1123,3924 104th St,Corona,NY,11368,Burger King
1124,2040 E Main St,Cortlandt Manor,NY,10567,Burger King
1125,9118 Astoria Blvd,East Elmhurst,NY,11369,Burger King
1126,2450 Hempstead Tpke,East Meadow,NY,11554,Burger King
1127,1360 Hempstead Tpke,Elmont,NY,11003,Burger King
1128,23925 Linden Blvd,Elmont,NY,11003,Burger King
1129,535 Hempstead Tpke,Elmont,NY,11003,Burger King
1130,265 E Main St,Elmsford,NY,10523,Burger King
1131,1915 Broadhollow Rd,Farmingdale,NY,11735,Burger King
1132,2250 N Ocean Ave,Farmingville,NY,11738,Burger King
1133,16417 Union Tpke,Flushing,NY,11366,Burger King
1134,260-01 Horace Harding Expy,Flushing,NY,11362,Burger King
1135,3920 Main St # 1,Flushing,NY,11354,Burger King
1136,7425 Grand Ave,Flushing,NY,11373,Burger King
1137,Bldg 123-Ft Hamilton #123,Fort Hamilton,NY,11252,Burger King
1138,21 E Merrick Rd,Freeport,NY,11520,Burger King
1139,3 Cedar Swamp Rd,Glen Cove,NY,11542,Burger King
1140,110 Northern Blvd,Greenvale,NY,11548,Burger King
1141,Jackson Avenue Mile Post 6n,Hastings On Hudson,NY,10706,Burger King
1142,505 Route 111,Hauppauge,NY,11788,Burger King
1143,150 Fulton Ave,Hempstead,NY,11550,Burger King
1144,500 Fulton Ave,Hempstead,NY,11550,Burger King
1145,440 Mill Rd,Hewlett,NY,11557,Burger King
1146,19510 Jamaica Ave,Hollis,NY,11423,Burger King
1147,1760 E Jericho Tpke,Huntington,NY,11743,Burger King
1148,241 New York Ave,Huntington,NY,11743,Burger King
1149,837 New York Ave,Huntington,NY,11743,Burger King
1150,3707 82nd St,Jackson Heights,NY,11372,Burger King
1151,101 Murray St,Jamaica,NY,11439,Burger King
1152,105 Rockaway Blvd,Jamaica,NY,11416,Burger King
1153,13110 Hillside Ave,Jamaica,NY,11418,Burger King
1154,15405 Rockaway Blvd,Jamaica,NY,11434,Burger King
1155,15929 Jamaica Ave,Jamaica,NY,11432,Burger King
1156,19414 Linden Blvd,Jamaica,NY,11412,Burger King
1157,9202 Atlantic Ave,Jamaica,NY,11416,Burger King
1158,52 Jericho Tpke,Jericho,NY,11753,Burger King
1159,254 Portion Rd,Lake Ronkonkoma,NY,11779,Burger King
1160,255 Portion Rd,Lake Ronkonkoma,NY,11779,Burger King
1161,21603 Merrick Blvd,Laurelton,NY,11413,Burger King
1162,22401 N Conduit Ave,Laurelton,NY,11413,Burger King
1163,665 Rockaway Tpke,Lawrence,NY,11559,Burger King
1164,1200 NY 109,Lindenhurst,NY,11757,Burger King
1165,700 Route 109,Lindenhurst,NY,11757,Burger King
1166,2 E Park Ave,Long Beach,NY,11561,Burger King
1167,1727 Merrick Rd,Merrick,NY,11566,Burger King
1168,6626 Metropolitan Ave # 36,Middle Village,NY,11379,Burger King
1169,230 N Bedford Rd,Mount Kisco,NY,10549,Burger King
1170,515 S Columbus Ave # 20,Mount Vernon,NY,10550,Burger King
1171,164 S Main St,New City,NY,10956,Burger King
1172,2351 Jericho Tpke,New Hyde Park,NY,11040,Burger King
1173,33 Lecount Pl,New Rochelle,NY,10801,Burger King
1174,106 Fulton St # 1,New York,NY,10038,Burger King
1175,106 Liberty St # 1,New York,NY,10006,Burger King
1176,130 W 125th St,New York,NY,10027,Burger King
1177,1313 Broadway,New York,NY,10001,Burger King
1178,146 Delancey St,New York,NY,10002,Burger King
1179,154 E 116th St,New York,NY,10029,Burger King
1180,16 Beaver St # A,New York,NY,10004,Burger King
1181,175 Dyckman St,New York,NY,10040,Burger King
1182,1886 3rd Ave,New York,NY,10029,Burger King
1183,200 E 125th St,New York,NY,10035,Burger King
1184,325 Broadway # 4,New York,NY,10007,Burger King
1185,327 W 42nd St # 1,New York,NY,10036,Burger King
1186,474 Fashion Ave # 1,New York,NY,10018,Burger King
1187,1300 Deer Park Ave,North Babylon,NY,11703,Burger King
1188,2125 Grand Ave,North Baldwin,NY,11510,Burger King
1189,3190 Long Beach Rd,Oceanside,NY,11572,Burger King
1190,13545 Crossbay Blvd,Ozone Park,NY,11417,Burger King
1191,246 Medford Ave,Patchogue,NY,11772,Burger King
1192,500 Waverly Ave,Patchogue,NY,11772,Burger King
1193,501 Old Country Rd,Plainview,NY,11803,Burger King
1194,260 Boston Post Rd,Port Chester,NY,10573,Burger King
1195,5 Old Shore Rd,Port Washington,NY,11050,Burger King
1196,21710 Hillside Ave,Queens Village,NY,11427,Burger King
1197,9285 Queens Blvd,Rego Park,NY,11374,Burger King
1198,5718 Myrtle Ave,Ridgewood,NY,11385,Burger King
1199,900 Old Country Rd,Riverhead,NY,11901,Burger King
1200,96 Broadhollow Rd,South Farmingdale,NY,11735,Burger King
1201,12002 Liberty Ave,South Richmond Hill,NY,11419,Burger King
1202,556 Central Park Ave,Scarsdale,NY,10583,Burger King
1203,3960 Sunrise Hwy,Seaford,NY,11783,Burger King
1204,862 Montauk Hwy # G,Shirley,NY,11967,Burger King
1205,Mile Marker 33 N,Sloatsburg,NY,10974,Burger King
1206,942 W Jericho Tpke,Smithtown,NY,11787,Burger King
1207,71 County Road 39,Southampton,NY,11968,Burger King
1208,160 Spring Valley Market Pl,Spring Valley,NY,10977,Burger King
1209,1565 Hylan Blvd,Staten Island,NY,10305,Burger King
1210,1680 Richmond Ave,Staten Island,NY,10314,Burger King
1211,20 Willowbrook Rd,Staten Island,NY,10302,Burger King
1212,231 Bay St,Staten Island,NY,10301,Burger King
1213,245 Page Ave,Staten Island,NY,10307,Burger King
1214,2557 Richmond Ave,Staten Island,NY,10314,Burger King
1215,2655 Richmond Ave # 2530,Staten Island,NY,10314,Burger King
1216,2800 Hylan Blvd,Staten Island,NY,10306,Burger King
1217,3901 Richmond Ave,Staten Island,NY,10312,Burger King
1218,950 Jewett Ave,Staten Island,NY,10314,Burger King
1219,2488 Nesconset Hwy,Stony Brook,NY,11790,Burger King
1220,4015 Queens Blvd # B,Sunnyside,NY,11104,Burger King
1221,181 W Merrick Rd,Valley Stream,NY,11580,Burger King
1222,1131 Wantagh Ave,Wantagh,NY,11793,Burger King
1223,628 W Montauk Hwy,West Babylon,NY,11704,Burger King
1224,340 Hempstead Tpke,West Hempstead,NY,11552,Burger King
1225,3623 Palisades Center Dr,West Nyack,NY,10994,Burger King
1226,409 Old Country Rd,Westbury,NY,11590,Burger King
1227,865 Carman Ave,Westbury,NY,11590,Burger King
1228,100 Main St # 265,White Plains,NY,10601,Burger King
1229,6815 Northern Blvd,Woodside,NY,11377,Burger King
1230,53 S Broadway,Yonkers,NY,10701,Burger King
1231,826 Central Park Ave,Yonkers,NY,10704,Burger King
1232,385 Downing Dr,Yorktown Heights,NY,10598,Burger King
1233,200 Garden City Plz # 105,Garden City,NY,11530,Burger King Management Office
1234,860 S Main St,Belle Glade,FL,33430,Burger King
1235,175 N Federal Hwy,Boca Raton,FL,33432,Burger King
1236,21669 State Road 7 # F,Boca Raton,FL,33428,Burger King
1237,7032 W Palmetto Park Rd,Boca Raton,FL,33433,Burger King
1238,8175 Glades Rd,Boca Raton,FL,33434,Burger King
1239,1490 SW 8th St,Boynton Beach,FL,33426,Burger King
1240,1521 W Boynton Beach Blvd,Boynton Beach,FL,33436,Burger King
1241,17951 NW 27th Ave,Carol City,FL,33056,Burger King
1242,4704 S Flamingo Rd,Cooper City,FL,33330,Burger King
1243,395 Alcazar Ave,Coral Gables,FL,33134,Burger King
1244,4141 W Flagler St,Coral Gables,FL,33134,Burger King
1245,10494 W Sample Rd,Coral Springs,FL,33065,Burger King
1246,1150 N University Dr,Coral Springs,FL,33071,Burger King
1247,9373 W Atlantic Blvd,Coral Springs,FL,33071,Burger King
1248,20505 Old Cutler Rd,Cutler Bay,FL,33189,Burger King
1249,20505 S Dixie Hwy # 1883,Cutler Bay,FL,33189,Burger King
1250,21000 SW 112th Ave,Cutler Bay,FL,33189,Burger King
1251,1800 Stirling Rd,Dania,FL,33004,Burger King
1252,1255 S Nob Hill Rd,Davie,FL,33324,Burger King
1253,14820 Griffin Rd,Davie,FL,33331,Burger King
1254,2201 S University Dr,Davie,FL,33324,Burger King
1255,3951 SW 64th Ave,Davie,FL,33314,Burger King
1256,5000 S State Road 7,Davie,FL,33314,Burger King
1257,5901 S University Dr,Davie,FL,33328,Burger King
1258,1303 S Military Trl,Deerfield Beach,FL,33442,Burger King
1259,1820 S Federal Hwy,Delray Beach,FL,33483,Burger King
1260,5080 W Atlantic Ave,Delray Beach,FL,33484,Burger King
1261,8050 NW 36th St,Doral,FL,33166,Burger King
1262,40 SE 1st Ave,Florida City,FL,33034,Burger King
1263,100 Terminal Dr,Fort Lauderdale,FL,33315,Burger King
1264,1445 W Sunrise Blvd,Fort Lauderdale,FL,33311,Burger King
1265,1701 S Federal Hwy,Fort Lauderdale,FL,33316,Burger King
1266,1725 E Sunrise Blvd,Fort Lauderdale,FL,33304,Burger King
1267,2500 W Broward Blvd,Fort Lauderdale,FL,33312,Burger King
1268,2901 W Commercial Blvd,Fort Lauderdale,FL,33309,Burger King
1269,5556 N Federal Hwy,Fort Lauderdale,FL,33308,Burger King
1270,6350 Powerline Rd,Fort Lauderdale,FL,33309,Burger King
1271,666 W Broward Blvd,Fort Lauderdale,FL,33312,Burger King
1272,6495 Lake Worth Rd,Greenacres,FL,33463,Burger King
1273,1030 W Hallandale Beach Blvd,Hallandale Beach,FL,33009,Burger King
1274,2301 E Hallandale Beach Blvd,Hallandale Beach,FL,33009,Burger King
1275,16700 NW 67th Ave,Hialeah,FL,33015,Burger King
1276,18730 NW 67th Ave,Hialeah,FL,33015,Burger King
1277,2210 W 68th St,Hialeah,FL,33016,Burger King
1278,410 W 84th St,Hialeah,FL,33014,Burger King
1279,5711 NW 176th St,Hialeah,FL,33015,Burger King
1280,775 E 9th St,Hialeah,FL,33010,Burger King
1281,891 W 49th St,Hialeah,FL,33012,Burger King
1282,9490 W Okeechobee Rd,Hialeah Gardens,FL,33016,Burger King
1283,2315 Hollywood Blvd,Hollywood,FL,33020,Burger King
1284,2319 N Federal Hwy,Hollywood,FL,33020,Burger King
1285,5051 Sheridan St,Hollywood,FL,33021,Burger King
1286,28644 SW 137th Ave,Homestead,FL,33033,Burger King
1287,30390 S Dixie Hwy,Homestead,FL,33033,Burger King
1288,454 W Indiantown Rd,Jupiter,FL,33458,Burger King
1289,9031 Old Dixie Hwy,Lake Park,FL,33403,Burger King
1290,231 N Dixie Hwy,Lake Worth,FL,33460,Burger King
1291,6405 Lantana Rd,Lake Worth,FL,33463,Burger King
1292,1001 S Dixie Hwy,Lantana,FL,33462,Burger King
1293,6080 S Congress Ave,Lantana,FL,33462,Burger King
1294,4003 W Oakland Park Blvd,Lauderdale Lakes,FL,33313,Burger King
1295,7299 W Commercial Blvd,Lauderhill,FL,33319,Burger King
1296,7080 Seminole Pratt Whitney Rd,Loxahatchee,FL,33470,Burger King
1297,2990 N State Road 7,Margate,FL,33063,Burger King
1298,550 N State Road 7,Margate,FL,33063,Burger King
1299,7195 NW 74th St,Medley,FL,33166,Burger King
1300,10 SW 8th St,Miami,FL,33130,Burger King
1301,10710 SW 72nd St,Miami,FL,33173,Burger King
1302,11200 SW 137th Ave,Miami,FL,33186,Burger King
1303,11200 SW 8th St # Gc,Miami,FL,33199,Burger King
1304,11400 Quail Roost Dr,Miami,FL,33157,Burger King
1305,11400 SW 41st St,Miami,FL,33165,Burger King
1306,11401 NW 12th St # Fc109,Miami,FL,33172,Burger King
1307,1156-1196 NW 16th St,Miami,FL,33136,Burger King
1308,11595 SW 40th St,Miami,FL,33165,Burger King
1309,11650 SW 152nd St,Miami,FL,33157,Burger King
1310,12500 SW 8th St,Miami,FL,33184,Burger King
1311,1309 NW 20th St,Miami,FL,33142,Burger King
1312,13704 SW 56th St,Miami,FL,33175,Burger King
1313,14095 SW 88th St,Miami,FL,33186,Burger King
1314,15170 Sunset Dr,Miami,FL,33193,Burger King
1315,16025 S Dixie Hwy,Miami,FL,33157,Burger King
1316,1611 NW 12th Ave,Miami,FL,33136,Burger King
1317,16730 SW 88th St,Miami,FL,33196,Burger King
1318,1700 Biscayne Blvd,Miami,FL,33132,Burger King
1319,1701 SW 8th St,Miami,FL,33135,Burger King
1320,18750 NW 2nd Ave,Miami,FL,33169,Burger King
1321,2275 SW 87th Ave,Miami,FL,33165,Burger King
1322,2390 W Flagler St,Miami,FL,33135,Burger King
1323,2801 SW 27th Ave,Miami,FL,33133,Burger King
1324,3051 Coral Way,Miami,FL,33145,Burger King
1325,3601 NW 27th Ave,Miami,FL,33142,Burger King
1326,4032 SW 137th Ave,Miami,FL,33175,Burger King
1327,50 W Flagler St,Miami,FL,33130,Burger King
1328,5398 Biscayne Blvd,Miami,FL,33137,Burger King
1329,5401 NW 7th Ave,Miami,FL,33127,Burger King
1330,5707 Blue Lagoon Dr,Miami,FL,33126,Burger King
1331,5721 NW 7th St,Miami,FL,33126,Burger King
1332,701 NW 37th Ave,Miami,FL,33125,Burger King
1333,7070 Bird Rd,Miami,FL,33155,Burger King
1334,3796 S Congress Ave,Palm Springs,FL,33461,Burger King
1335,11298 Pines Blvd,Pembroke Pines,FL,33026,Burger King
1336,17067 Pines Blvd,Pembroke Pines,FL,33027,Burger King
1337,8913 Taft St,Pembroke Pines,FL,33024,Burger King
1338,18240 S Dixie Hwy,Perrine,FL,33157,Burger King
1339,13201 S Dixie Hwy,Pinecrest,FL,33156,Burger King
1340,9201 S Dixie Hwy,Pinecrest,FL,33156,Burger King
1341,1855 N Flamingo Rd,Plantation,FL,33323,Burger King
1342,6125 W Sunrise Blvd,Plantation,FL,33313,Burger King
1343,945 S State Road 7,Plantation,FL,33317,Burger King
1344,2200 W Sample Rd,Pompano Beach,FL,33073,Burger King
1345,2350 W Atlantic Blvd,Pompano Beach,FL,33069,Burger King
1346,40 N Federal Hwy,Pompano Beach,FL,33062,Burger King
1347,4139 W Blue Heron Blvd,Riviera Beach,FL,33404,Burger King
1348,1103 Royal Palm Beach Blvd,Royal Palm Beach,FL,33411,Burger King
1349,11959 Southern Blvd,Royal Palm Beach,FL,33411,Burger King
1350,18194 Collins Ave,Sunny Isles Beach,FL,33160,Burger King
1351,10000 W Oakland Park Blvd,Sunrise,FL,33351,Burger King
1352,12801 W Sunrise Blvd # 217,Sunrise,FL,33323,Burger King
1353,3200 N University Dr,Sunrise,FL,33351,Burger King
1354,9420 W Commercial Blvd,Tamarac,FL,33351,Burger King
1355,3900 S State Road 7,Wellington,FL,33449,Burger King
1356,1000 Palm Bch Intl Airport,West Palm Beach,FL,33406,Burger King
1357,1210 N Dixie Hwy,West Palm Beach,FL,33401,Burger King
1358,1721 Belvedere Rd,West Palm Beach,FL,33406,Burger King
1359,730 NW 36th St,Miami,FL,33127,Burger King
1360,7390 Coral Way,Miami,FL,33155,Burger King
1361,7955 W Flagler St,Miami,FL,33144,Burger King
1362,8770 Mills Dr,Miami,FL,33183,Burger King
1363,900 Ives Dairy Rd,Miami,FL,33179,Burger King
1364,955 SW 107th Ave,Miami,FL,33174,Burger King
1365,9675 SW 40th St,Miami,FL,33165,Burger King
1366,Concourse E Miami Intl Airport,Miami,FL,33122,Burger King
1367,1100 5th St,Miami Beach,FL,33139,Burger King
1368,1101 Washington Ave,Miami Beach,FL,33139,Burger King
1369,910 Arthur Godfrey Rd,Miami Beach,FL,33140,Burger King
1370,3600 NW 199th St,Miami Gardens,FL,33056,Burger King
1371,15320 NW 79th Ct,Miami Lakes,FL,33016,Burger King
1372,9099 Biscayne Blvd,Miami Shores,FL,33138,Burger King
1373,3700 Curtiss Pkwy,Miami Springs,FL,33166,Burger King
1374,4201 NW 36th St,Miami Springs,FL,33166,Burger King
1375,26801 S Dixie Hwy,Naranja,FL,33032,Burger King
1376,1267 S State Road 7,North Lauderdale,FL,33068,Burger King
1377,7860 W Mcnab Rd,North Lauderdale,FL,33068,Burger King
1378,12215 Biscayne Blvd,North Miami,FL,33181,Burger King
1379,12790 NW 7th Ave,North Miami,FL,33168,Burger King
1380,13575 W Dixie Hwy,North Miami,FL,33161,Burger King
1381,1910 NE 163rd St,North Miami Beach,FL,33162,Burger King
1382,233 NE 167th St,North Miami Beach,FL,33162,Burger King
1383,2201 W Oakland Park Blvd,Oakland Park,FL,33311,Burger King
1384,1741 Palm Beach Lakes Bl #E243,West Palm Beach,FL,33401,Burger King
1385,1760 S Military Trl,West Palm Beach,FL,33415,Burger King
1386,2949 N Military Trl,West Palm Beach,FL,33409,Burger King
1387,4175 Okeechobee Blvd,West Palm Beach,FL,33409,Burger King
1388,5501 Corporate Way,West Palm Beach,FL,33407,Burger King
1389,6903 Okeechobee Blvd,West Palm Beach,FL,33411,Burger King
1390,815 S Congress Ave,West Palm Beach,FL,33406,Burger King
1391,Florida Turnpike Mile Post 94,West Palm Beach,FL,33413,Burger King
1392,2631 S State Road 7,West Park,FL,33023,Burger King
1393,3 Weston Rd,Weston,FL,33326,Burger King
1394,1 W Oakland Park Blvd,Wilton Manors,FL,33311,Burger King
1395,5505 Blue Lagoon Dr,Miami,FL,33126,Burger King Holdings Inc
1396,5707 Blue Lagoon Dr,Miami,FL,33126,Burger King Worldwide Inc
1397,3300 E 4th Ave # 6,Hialeah,FL,33013,Veggie Burger King Corp
1398,Address,City,State,ZIP Code,Company Name
1399,229 E Tremont Ave,Bronx,NY,10457,C-Town
1400,264 E 204th St,Bronx,NY,10458,C-Town
1401,2733 3rd Ave,Bronx,NY,10451,C-Town
1402,2891 Sedgwick Ave,Bronx,NY,10468,C-Town
1403,30 E 198th St,Bronx,NY,10468,C-Town
1404,309 E Burnside Ave,Bronx,NY,10457,C-Town
1405,3220 3rd Ave,Bronx,NY,10451,C-Town
1406,3690 3rd Ave,Bronx,NY,10456,C-Town
1407,385 City Island Ave,Bronx,NY,10464,C-Town
1408,3970 Laconia Ave,Bronx,NY,10466,C-Town
1409,4008 Boston Rd,Bronx,NY,10475,C-Town
1410,4265 Katonah Ave,Bronx,NY,10470,C-Town
1411,5249 Broadway,Bronx,NY,10463,C-Town
1412,564 Southern Blvd,Bronx,NY,10455,C-Town
1413,5686 Mosholu Ave,Bronx,NY,10471,C-Town
1414,630 E 169th St,Bronx,NY,10456,C-Town
1415,668 Crescent Ave,Bronx,NY,10458,C-Town
1416,809 Southern Blvd,Bronx,NY,10459,C-Town
1417,1176 Liberty Ave,Brooklyn,NY,11208,C-Town
1418,130 Havemeyer St,Brooklyn,NY,11211,C-Town
1419,1362 Nostrand Ave,Brooklyn,NY,11226,C-Town
1420,146 E 98th St,Brooklyn,NY,11212,C-Town
1421,1709 Avenue U,Brooklyn,NY,11229,C-Town
1422,1761 Nostrand Ave,Brooklyn,NY,11226,C-Town
1423,2115 Pitkin Ave,Brooklyn,NY,11207,C-Town
1424,237-243 Avenue U,Brooklyn,NY,11223,C-Town
1425,239 Bond St,Brooklyn,NY,11217,C-Town
1426,241 Taaffe Pl # 1,Brooklyn,NY,11205,C-Town
1427,2807 86th St # 15,Brooklyn,NY,11223,C-Town
1428,2869 Fulton St,Brooklyn,NY,11207,C-Town
1429,29 Belmont Ave,Brooklyn,NY,11212,C-Town
1430,329 9th St,Brooklyn,NY,11215,C-Town
1431,330 Graham Ave,Brooklyn,NY,11211,C-Town
1432,330 Utica Ave,Brooklyn,NY,11213,C-Town
1433,346 Central Ave,Brooklyn,NY,11221,C-Town
1434,4209 Avenue D,Brooklyn,NY,11203,C-Town
1435,4705 5th Ave,Brooklyn,NY,11220,C-Town
1436,5311 Church Ave,Brooklyn,NY,11203,C-Town
1437,57 Mill St,Brooklyn,NY,11231,C-Town
1438,597 E 16th St,Brooklyn,NY,11226,C-Town
1439,6614 18th Ave,Brooklyn,NY,11204,C-Town
1440,710 Coney Island Ave,Brooklyn,NY,11218,C-Town
1441,7510 5th Ave,Brooklyn,NY,11209,C-Town
1442,760 4th Ave,Brooklyn,NY,11232,C-Town
1443,7924 Flatlands Ave,Brooklyn,NY,11236,C-Town
1444,953 Manhattan Ave,Brooklyn,NY,11222,C-Town
1445,32 Wheeler Rd,Central Islip,NY,11722,C-Town
1446,10879 Roosevelt Ave,Corona,NY,11368,C-Town
1447,29 Village Ave,Elmont,NY,11003,C-Town
1448,1105 Horseblock Rd # A,Farmingville,NY,11738,C-Town
1449,167 Tulip Ave,Floral Park,NY,11001,C-Town
1450,924 Seneca Ave,Flushing,NY,11385,C-Town
1451,445 S Franklin St,Hempstead,NY,11550,C-Town
1452,8508 37th Ave,Jackson Heights,NY,11372,C-Town
1453,10854 Guy R Brewer Blvd,Jamaica,NY,11433,C-Town
1454,13416 Liberty Ave,Jamaica,NY,11419,C-Town
1455,14236 Foch Blvd,Jamaica,NY,11436,C-Town
1456,16915 Hillside Ave,Jamaica,NY,11432,C-Town
1457,19509 Jamaica Ave,Jamaica,NY,11423,C-Town
1458,8129 Lefferts Blvd,Kew Gardens,NY,11415,C-Town
1459,7543 Metropolitan Ave,Middle Village,NY,11379,C-Town
1460,538 Main St,New Rochelle,NY,10801,C-Town
1461,1016 Saint Nicholas Ave,New York,NY,10032,C-Town
1462,1314 Saint Nicholas Ave,New York,NY,10033,C-Town
1463,1721 1st Ave,New York,NY,10128,C-Town
1464,188 Avenue C # 1,New York,NY,10009,C-Town
1465,238 W 116th St,New York,NY,10026,C-Town
1466,3320 Broadway,New York,NY,10031,C-Town
1467,3632 Broadway,New York,NY,10031,C-Town
1468,4918 Broadway,New York,NY,10034,C-Town
1469,5 Saint James Pl,New York,NY,10038,C-Town
1470,560 W 125th St,New York,NY,10027,C-Town
1471,100 Croton Ave,Ossining,NY,10562,C-Town
1472,88 Croton Ave,Ossining,NY,10562,C-Town
1473,10766 Crossbay Blvd,Ozone Park,NY,11417,C-Town
1474,1049 Park St,Peekskill,NY,10566,C-Town
1475,9406 63rd Dr,Rego Park,NY,11374,C-Town
1476,870 Cypress Ave,Ridgewood,NY,11385,C-Town
1477,1662 New York Ave,South Huntington,NY,11746,C-Town
1478,11014 Farmers Blvd,Saint Albans,NY,11412,C-Town
1479,2071 Clove Rd,Staten Island,NY,10304,C-Town
1480,4125 Greenpoint Ave,Sunnyside,NY,11104,C-Town
1481,114 N Broadway,Tarrytown,NY,10591,C-Town
1482,565 Uniondale Ave,Uniondale,NY,11553,C-Town
1483,306 Post Ave,Westbury,NY,11590,C-Town
1484,7439 Jamaica Ave,Woodhaven,NY,11421,C-Town
1485,9802 Jamaica Ave,Woodhaven,NY,11421,C-Town
1486,5915 Roosevelt Ave,Woodside,NY,11377,C-Town
1487,243 Avenue U,Brooklyn,NY,11223,C-Town Supermarket
1488,Hunts Point Coop Mkt,Bronx,NY,10474,C-Town Supermarkets
1489,214 Rockaway Ave,Valley Stream,NY,11580,Ctown Supermarket
1490,782 Broadway,Bayonne,NJ,7002,C-Town
1491,154 State St,Hackensack,NJ,7601,C-Town
1492,759 W Side Ave,Jersey City,NJ,7306,C-Town
1493,885 Bergen Ave,Jersey City,NJ,7306,C-Town
1494,333 Suydam St,New Brunswick,NJ,8901,C-Town
1495,120 Clinton Ave,Newark,NJ,7114,C-Town
1496,910 18th Ave,Newark,NJ,7106,C-Town
1497,16 N Day St,Orange,NJ,7050,C-Town
1498,606 Main Ave,Passaic,NJ,7055,C-Town
1499,444 20th Ave,Paterson,NJ,7513,C-Town
1500,444 Madison Ave,Paterson,NJ,7524,C-Town
1501,680 Main St,Paterson,NJ,7503,C-Town
1502,272 Maple St,Perth Amboy,NJ,8861,C-Town
1503,Roosevelt Ave & 59th S,Woodside,NY,11377,C Town Intl Fresh Mkt A Kimco
1504,721 Broadway,Amityville,NY,11701,C-Town
1505,2130 Newtown Ave,Astoria,NY,11102,C-Town
1506,3118 24th Ave,Astoria,NY,11102,C-Town
1507,3412 34th Ave,Astoria,NY,11106,C-Town
1508,40 28 Ave,Astoria,NY,11103,C-Town
1509,4012 28th Ave,Astoria,NY,11103,C-Town
1510,4733 Bell Blvd,Bayside,NY,11361,C-Town
1511,100 Hugh J Grant Cir,Bronx,NY,10472,C-Town
1512,1040 Sherman Ave,Bronx,NY,10456,C-Town
1513,1580 Unionport Rd,Bronx,NY,10462,C-Town
1514,1750 Dr Martin L King Jr Blvd,Bronx,NY,10453,C-Town
1515,Address,City,State,ZIP Code,Company Name
1516,8251 Ranger Trl,Boca Raton,FL,33487,Trader Joe's
1517,855 S Federal Hwy,Boca Raton,FL,33432,Trader Joe's
1518,2296 S University Dr,Davie,FL,33324,Trader Joe's
1519,1851 S Federal Hwy # 500,Delray Beach,FL,33483,Trader Joe's
1520,1560 N Federal Hwy,Fort Lauderdale,FL,33304,Trader Joe's
1521,1220 17th St,Miami Beach,FL,33139,Trader Joe's
1522,1683 West Ave,Miami Beach,FL,33139,Trader Joe's
1523,2560 Pga Blvd,Palm Beach Gardens,FL,33410,Trader Joe's
1524,11960 Pines Blvd,Pembroke Pines,FL,33026,Trader Joe's
1525,9205 S Dixie Hwy,Pinecrest,FL,33156,Trader Joe's
1526,8200 Cleary Blvd # 2010,Plantation,FL,33324,Trader Joe's
1527,2877 S State Road 7,Wellington,FL,33414,Trader Joe's
1528,110 Brick Plz,Brick,NJ,8723,Trader Joe's
1529,315 Promenade Blvd,Bridgewater,NJ,8807,Trader Joe's
1530,259 Allwood Rd,Clifton,NJ,7012,Trader Joe's
1531,3056 State Route 10 # 10,Denville,NJ,7834,Trader Joe's
1532,715 River Rd,Edgewater,NJ,7020,Trader Joe's
1533,176 Columbia Tpke # 12,Florham Park,NJ,7932,Trader Joe's
1534,186 Columbia Tpke,Florham Park,NJ,7932,Trader Joe's
1535,4345 US Highway 9,Freehold,NJ,7728,Trader Joe's
1536,1350 Willow Ave,Hoboken,NJ,7030,Trader Joe's
1537,187 Millburn Ave,Millburn,NJ,7041,Trader Joe's
1538,869 US Highway 1,North Brunswick,NJ,8902,Trader Joe's
1539,404 N State Rt 17,Paramus,NJ,7652,Trader Joe's
1540,1031 Broad St,Shrewsbury,NJ,7702,Trader Joe's
1541,1172 Hamburg Tpke,Wayne,NJ,7470,Trader Joe's
1542,910 Hamburg Tpke,Wayne,NJ,7470,Trader Joe's
1543,155 Elm St,Westfield,NJ,7090,Trader Joe's
1544,20 Irvington St,Westwood,NJ,7675,Trader Joe's
1545,130 Court St,Brooklyn,NY,11201,Trader Joe's
1546,445 Albee Sq # 11,Brooklyn,NY,11201,Trader Joe's
1547,5010 Jericho Tpke,Commack,NY,11725,Trader Joe's
1548,5900 Jericho Tpke,Commack,NY,11725,Trader Joe's
1549,910 Old Country Rd,Garden City,NY,11530,Trader Joe's
1550,215 N Central Ave,Hartsdale,NY,10530,Trader Joe's
1551,1280 W Broadway,Hewlett,NY,11557,Trader Joe's
1552,137 Alexander Ave,Lake Grove,NY,11755,Trader Joe's
1553,2085 Smith Haven Plz,Lake Grove,NY,11755,Trader Joe's
1554,1260 Boston Post Rd,Larchmont,NY,10538,Trader Joe's
1555,1714 Merrick Rd,Merrick,NY,11566,Trader Joe's
1556,138 E 14th St,New York,NY,10003,Trader Joe's
1557,142 E 14th St,New York,NY,10003,Trader Joe's
1558,200 E 32nd St,New York,NY,10016,Trader Joe's
1559,2073 Broadway,New York,NY,10023,Trader Joe's
1560,233 Spring St # 1,New York,NY,10013,Trader Joe's
1561,400 Grand St Cellar # 2,New York,NY,10002,Trader Joe's
1562,436 E 14th St,New York,NY,10009,Trader Joe's
1563,670 Columbus Ave,New York,NY,10025,Trader Joe's
1564,675 Avenue Of The Americas,New York,NY,10010,Trader Joe's
1565,3418 Long Beach Rd,Oceanside,NY,11572,Trader Joe's
1566,425 S Oyster Bay Rd,Plainview,NY,11803,Trader Joe's
1567,9030 Metropolitan Ave,Rego Park,NY,11374,Trader Joe's
1568,727 Post Rd,Scarsdale,NY,10583,Trader Joe's
1569,2385 Richmond Ave,Staten Island,NY,10314,Trader Joe's
1570,Address,City,State,ZIP Code,Company Name
1571,1025 S Main St,Belle Glade,FL,33430,Wendy's
1572,11383 W Palmetto Park Rd,Boca Raton,FL,33428,Wendy's
1573,777 Glades Rd,Boca Raton,FL,33431,Wendy's
1574,831 W Yamato Rd,Boca Raton,FL,33431,Wendy's
1575,865 N Federal Hwy,Boca Raton,FL,33432,Wendy's
1576,9192 Glades Rd # A,Boca Raton,FL,33434,Wendy's
1577,600 E Woolbright Rd,Boynton Beach,FL,33435,Wendy's
1578,701 W Boynton Beach Blvd,Boynton Beach,FL,33426,Wendy's
1579,7400 Boynton Beach Blvd,Boynton Beach,FL,33437,Wendy's
1580,10265 Stirling Rd,Cooper City,FL,33328,Wendy's
1581,10050 W Sample Rd,Coral Springs,FL,33065,Wendy's
1582,1475 N University Dr,Coral Springs,FL,33071,Wendy's
1583,4676 N University Dr,Coral Springs,FL,33067,Wendy's
1584,6375 W Sample Rd,Coral Springs,FL,33067,Wendy's
1585,18880 S Dixie Hwy,Cutler Bay,FL,33157,Wendy's
1586,2660 Davie Rd,Davie,FL,33314,Wendy's
1587,3055 S University Dr,Davie,FL,33328,Wendy's
1588,4600 S State Road 7,Davie,FL,33314,Wendy's
1589,1197 S Military Trl,Deerfield Beach,FL,33442,Wendy's
1590,355 W Hillsboro Blvd,Deerfield Beach,FL,33441,Wendy's
1591,15020 S Jog Rd,Delray Beach,FL,33446,Wendy's
1592,260 Linton Blvd,Delray Beach,FL,33444,Wendy's
1593,4950 Linton Blvd,Delray Beach,FL,33445,Wendy's
1594,10680 NW 41st St # 305,Doral,FL,33178,Wendy's
1595,2400 NW 87th Ave # 305,Doral,FL,33172,Wendy's
1596,8540 NW 58th St,Doral,FL,33166,Wendy's
1597,340 SE 1st Ave,Florida City,FL,33034,Wendy's
1598,1631 E Sunrise Blvd,Fort Lauderdale,FL,33304,Wendy's
1599,2031 E Oakland Park Blvd,Fort Lauderdale,FL,33306,Wendy's
1600,2071 Griffin Rd,Fort Lauderdale,FL,33312,Wendy's
1601,2801 Davie Blvd,Fort Lauderdale,FL,33312,Wendy's
1602,3300 W Commercial Blvd,Fort Lauderdale,FL,33309,Wendy's
1603,3801 W Broward Blvd,Fort Lauderdale,FL,33312,Wendy's
1604,930 NW 62nd St,Fort Lauderdale,FL,33309,Wendy's
1605,943 W State Road 84,Fort Lauderdale,FL,33315,Wendy's
1606,3887 S Jog Rd,Greenacres,FL,33467,Wendy's
1607,6870 Forest Hill Blvd,Greenacres,FL,33413,Wendy's
1608,1091 W Hallandale Beach Blvd,Hallandale Beach,FL,33009,Wendy's
1609,1730 W 49th St,Hialeah,FL,33012,Wendy's
1610,2390 W 68th St,Hialeah,FL,33016,Wendy's
1611,365 W 78th Rd,Hialeah,FL,33014,Wendy's
1612,46 E 49th St,Hialeah,FL,33013,Wendy's
1613,555 Hialeah Dr,Hialeah,FL,33010,Wendy's
1614,7560 NW 186th St,Hialeah,FL,33015,Wendy's
1615,8100 W Hialeah Gardens Blvd,Hialeah,FL,33018,Wendy's
1616,2550 Pine Island Rd,Hollywood,FL,33024,Wendy's
1617,3350 Oakwood Blvd,Hollywood,FL,33020,Wendy's
1618,3535 Hollywood Blvd,Hollywood,FL,33021,Wendy's
1619,460 S State Road 7,Hollywood,FL,33023,Wendy's
1620,5551 Sheridan St,Hollywood,FL,33021,Wendy's
1621,13485 SW 288th St,Homestead,FL,33033,Wendy's
1622,3003 NE 8th St,Homestead,FL,33033,Wendy's
1623,30130 S Dixie Hwy,Homestead,FL,33033,Wendy's
1624,626 W Indiantown Rd,Jupiter,FL,33458,Wendy's
1625,2401 10th Ave N,Lake Worth,FL,33461,Wendy's
1626,6049 S Military Trl,Lake Worth,FL,33463,Wendy's
1627,7050 S Jog Rd,Lake Worth,FL,33467,Wendy's
1628,9808 Lake Worth Rd,Lake Worth,FL,33467,Wendy's
1629,1411 Hypoluxo Rd,Lantana,FL,33462,Wendy's
1630,1899 NW 40th Ave,Lauderhill,FL,33313,Wendy's
1631,5900 W Oakland Park Blvd,Lauderhill,FL,33313,Wendy's
1632,12011 Southern Blvd,Loxahatchee,FL,33470,Wendy's
1633,15753 Southern Blvd,Loxahatchee,FL,33470,Wendy's
1634,499 N State Road 7,Margate,FL,33063,Wendy's
1635,7401 NW 73rd St,Medley,FL,33166,Wendy's
1636,10610 SW 40th St,Miami,FL,33165,Wendy's
1637,10829 SW 72nd St,Miami,FL,33173,Wendy's
1638,1100 NW 54th St,Miami,FL,33127,Wendy's
1639,11925 NW 27th Pl,Miami,FL,33167,Wendy's
1640,13090 SW 120th St,Miami,FL,33186,Wendy's
1641,13530 SW 152nd St,Miami,FL,33177,Wendy's
1642,13650 SW 26th St,Miami,FL,33175,Wendy's
1643,13890 SW 88th St,Miami,FL,33186,Wendy's
1644,13901 S Dixie Hwy,Miami,FL,33176,Wendy's
1645,14180 SW 8th St,Miami,FL,33184,Wendy's
1646,14715 SW 42nd St,Miami,FL,33185,Wendy's
1647,1515 NW 7th St,Miami,FL,33125,Wendy's
1648,16203 SW 88th St,Miami,FL,33196,Wendy's
1649,1651 SW 107th Ave,Miami,FL,33165,Wendy's
1650,1856 NE Miami Gardens Dr,Miami,FL,33179,Wendy's
1651,19650 NW 2nd Ave,Miami,FL,33169,Wendy's
1652,200 SW 8th St # 305,Miami,FL,33130,Wendy's
1653,2000 NW 10th Ave,Miami,FL,33127,Wendy's
1654,20975 S Dixie Hwy,Miami,FL,33189,Wendy's
1655,2100 NW 42nd Ave,Miami,FL,33126,Wendy's
1656,2370 SW 8th St,Miami,FL,33135,Wendy's
1657,25 NE 167th St,Miami,FL,33162,Wendy's
1658,3301 Biscayne Blvd,Miami,FL,33137,Wendy's
1659,3600 S Dixie Hwy,Miami,FL,33133,Wendy's
1660,3805 NW 27th Ave,Miami,FL,33142,Wendy's
1661,645 NW 57th Ave,Miami,FL,33126,Wendy's
1662,6720 SW 8th St,Miami,FL,33144,Wendy's
1663,6898 Bird Rd,Miami,FL,33155,Wendy's
1664,697 NW 37th Ave,Miami,FL,33125,Wendy's
1665,7393 NW 36th St,Miami,FL,33166,Wendy's
1666,7555 NW 12th St,Miami,FL,33126,Wendy's
1667,7801 Biscayne Blvd # 305,Miami,FL,33138,Wendy's
1668,7901 W Flagler St,Miami,FL,33144,Wendy's
1669,8295 NW 27th Ave,Miami,FL,33147,Wendy's
1670,8922 SW 24th St,Miami,FL,33165,Wendy's
1671,9655 W Flagler St,Miami,FL,33174,Wendy's
1672,Miami Int Airpt Termina #A110c,Miami,FL,33122,Wendy's
1673,18181 NW 27th Ave,Miami Gardens,FL,33056,Wendy's
1674,4780 NW 183rd St,Miami Gardens,FL,33055,Wendy's
1675,16601 NW 57th Ave,Miami Lakes,FL,33014,Wendy's
1676,10900 Pembroke Rd,Miramar,FL,33025,Wendy's
1677,14900 SW 31st St,Miramar,FL,33027,Wendy's
1678,3750 Utopia Dr,Miramar,FL,33023,Wendy's
1679,7115 W Mcnab Rd,North Lauderdale,FL,33068,Wendy's
1680,12415 Biscayne Blvd,North Miami,FL,33181,Wendy's
1681,12485 NW 7th Ave,North Miami,FL,33168,Wendy's
1682,1532 NE 163rd St,North Miami Beach,FL,33162,Wendy's
1683,320 Northlake Blvd,North Palm Beach,FL,33408,Wendy's
1684,1040 E Commercial Blvd,Oakland Park,FL,33334,Wendy's
1685,4435 Northlake Blvd,Palm Beach Gardens,FL,33410,Wendy's
1686,4483 S Congress Ave,Palm Springs,FL,33461,Wendy's
1687,3950 Pembroke Rd,Pembroke Park,FL,33021,Wendy's
1688,12650 Pines Blvd,Pembroke Pines,FL,33027,Wendy's
1689,14601 NW 20th St,Pembroke Pines,FL,33028,Wendy's
1690,17331 Pines Blvd,Pembroke Pines,FL,33029,Wendy's
1691,2050 NW 146th Ave,Pembroke Pines,FL,33028,Wendy's
1692,8000 Pines Blvd,Pembroke Pines,FL,33024,Wendy's
1693,1100 Park Central Blvd S,Pompano Beach,FL,33064,Wendy's
1694,1190 NE 23rd Ter,Pompano Beach,FL,33062,Wendy's
1695,1840 E Atlantic Blvd,Pompano Beach,FL,33060,Wendy's
1696,2281 W Sample Rd,Pompano Beach,FL,33073,Wendy's
1697,2500 W Atlantic Blvd,Pompano Beach,FL,33069,Wendy's
1698,2700 Hammondville Rd,Pompano Beach,FL,33069,Wendy's
1699,Milepost 65,Pompano Beach,FL,33069,Wendy's
1700,3741 W Blue Heron Blvd,Riviera Beach,FL,33404,Wendy's
1701,560 N State Road 7,Royal Palm Beach,FL,33411,Wendy's
1702,12941 W Sunrise Blvd,Sunrise,FL,33323,Wendy's
1703,1398 SW 160th Ave # 501,Sunrise,FL,33326,Wendy's
1704,2471 N University Dr,Sunrise,FL,33322,Wendy's
1705,9960 W Oakland Park Blvd,Sunrise,FL,33351,Wendy's
1706,2000 NW 107th Ave,Sweetwater,FL,33172,Wendy's
1707,7025 N University Dr,Tamarac,FL,33321,Wendy's
1708,8901 W Commercial Blvd,Tamarac,FL,33351,Wendy's
1709,1376 N Military Trl,West Palm Beach,FL,33409,Wendy's
1710,1531 Belvedere Rd,West Palm Beach,FL,33406,Wendy's
1711,3075 45th St,West Palm Beach,FL,33407,Wendy's
1712,6790 Okeechobee Blvd,West Palm Beach,FL,33411,Wendy's
1713,7925 S Dixie Hwy,West Palm Beach,FL,33405,Wendy's
1714,951 Hank Aaron Dr,West Palm Beach,FL,33401,Wendy's
1715,1904 Weston Rd,Weston,FL,33326,Wendy's
1716,1049 W Oakland Park Blvd,Wilton Manors,FL,33311,Wendy's
1717,11032 SW 166th Ter,Miami,FL,33157,Wendy's Chocolates & Gift
1718,181 Lefante Way,Bayonne,NJ,7002,Wendy's
1719,333 Franklin Ave,Belleville,NJ,7109,Wendy's
1720,150 N Washington Ave,Bergenfield,NJ,7621,Wendy's
1721,147 Bloomfield Ave,Bloomfield,NJ,7003,Wendy's
1722,3190 US Highway 22,Branchburg,NJ,8876,Wendy's
1723,101 Jack Martin Blvd,Brick,NJ,8724,Wendy's
1724,555 Route 70,Brick,NJ,8723,Wendy's
1725,977 US Highway 22,Bridgewater,NJ,8807,Wendy's
1726,1204 State Rt 23,Butler,NJ,7405,Wendy's
1727,35 US Highway 206 S,Chester,NJ,7930,Wendy's
1728,59 Central Ave,Clark,NJ,7066,Wendy's
1729,83 Main Ave,Clifton,NJ,7014,Wendy's
1730,2533 US Highway 130,Cranbury,NJ,8512,Wendy's
1731,414 State Route 18,East Brunswick,NJ,8816,Wendy's
1732,413 State Route 10,East Hanover,NJ,7936,Wendy's
1733,275 Central Ave,East Orange,NJ,7018,Wendy's
1734,712 US Highway 1 # 211,Edison,NJ,8817,Wendy's
1735,425 Rahway Ave,Elizabeth,NJ,7202,Wendy's
1736,433 N Broad St,Elizabeth,NJ,7208,Wendy's
1737,443 N Broad St,Elizabeth,NJ,7208,Wendy's
1738,231 US Highway 46,Elmwood Park,NJ,7407,Wendy's
1739,197 US Highway 9,Englishtown,NJ,7726,Wendy's
1740,320 Route 59,Airmont,NY,10952,Wendy's
1741,690 Sunrise Hwy,Baldwin,NY,11510,Wendy's
1742,220 Northern Blvd,Bayside,NY,11361,Wendy's
1743,22006 Northern Blvd,Bayside,NY,11361,Wendy's
1744,37 Wicks Rd,Brentwood,NY,11717,Wendy's
1745,19 W 170th St,Bronx,NY,10452,Wendy's
1746,2140 Westchester Ave,Bronx,NY,10462,Wendy's
1747,2703 E Tremont Ave,Bronx,NY,10461,Wendy's
1748,3636 Boston Rd,Bronx,NY,10469,Wendy's
1749,387 E 149th St,Bronx,NY,10455,Wendy's
1750,4040 3rd Ave,Bronx,NY,10457,Wendy's
1751,4330 Boston Rd,Bronx,NY,10475,Wendy's
1752,5805 Broadway,Bronx,NY,10463,Wendy's
1753,1601 Utica Ave,Brooklyn,NY,11234,Wendy's
1754,1602 Shore Pkwy,Brooklyn,NY,11214,Wendy's
1755,1916 Linden Blvd,Brooklyn,NY,11207,Wendy's
1756,3183 Atlantic Ave,Brooklyn,NY,11208,Wendy's
1757,420 86th St,Brooklyn,NY,11209,Wendy's
1758,469 Flatbush Ave,Brooklyn,NY,11225,Wendy's
1759,505 Utica Ave,Brooklyn,NY,11203,Wendy's
1760,7811 Flatlands Ave,Brooklyn,NY,11236,Wendy's
1761,9001 Ditmas Ave,Brooklyn,NY,11236,Wendy's
1762,1894 Route 6,Carmel,NY,10512,Wendy's
1763,774 Main St,Center Moriches,NY,11934,Wendy's
1764,2278 Middle Country Rd,Centereach,NY,11720,Wendy's
1765,2180 Jericho Tpke,Commack,NY,11725,Wendy's
1766,1255 Sunrise Hwy,Copiague,NY,11726,Wendy's
1767,820 Montauk Hwy,Copiague,NY,11726,Wendy's
1768,2929 E Main St,Cortlandt Manor,NY,10567,Wendy's
1769,1730 Hempstead Tpke,East Meadow,NY,11554,Wendy's
1770,280 Larkfield Rd,East Northport,NY,11731,Wendy's
1771,80 Ocean Ave,East Rockaway,NY,11518,Wendy's
1772,199 Hempstead Tpke,Elmont,NY,11003,Wendy's
1773,91 N Central Ave,Elmsford,NY,10523,Wendy's
1774,91 Saw Mill Rd,Elmsford,NY,10523,Wendy's
1775,2123 Broadhollow Rd,Farmingdale,NY,11735,Wendy's
1776,220 Route 109,Farmingdale,NY,11735,Wendy's
1777,5001 Hempstead Tpke,Farmingdale,NY,11735,Wendy's
1778,191 Jericho Tpke,Floral Park,NY,11001,Wendy's
1779,133 Whitestone Expwy,Flushing,NY,11354,Wendy's
1780,13350 Whitestone Expy,Flushing,NY,11354,Wendy's
1781,6902 Northern Blvd,Flushing,NY,11377,Wendy's
1782,1034 Hempstead Tpke,Franklin Square,NY,11010,Wendy's
1783,630 Old Country Rd,Garden City,NY,11530,Wendy's
1784,820 Old Country Rd,Garden City,NY,11530,Wendy's
1785,210 Glen St,Glen Cove,NY,11542,Wendy's
1786,18 Glen Cove Rd,Greenvale,NY,11548,Wendy's
1787,352 Motor Pkwy,Hauppauge,NY,11788,Wendy's
1788,527 Route 111,Hauppauge,NY,11788,Wendy's
1789,33 Saw Mill River Rd,Hawthorne,NY,10532,Wendy's
1790,60 N Broadway,Hicksville,NY,11801,Wendy's
1791,175 Morris Ave,Holtsville,NY,11742,Wendy's
1792,1210 E Jericho Tpke,Huntington,NY,11743,Wendy's
1793,205 W Jericho Tpke,Huntington Station,NY,11746,Wendy's
1794,33 Austin Blvd,Island Park,NY,11558,Wendy's
1795,168 Main St,Islip,NY,11751,Wendy's
1796,7232 Broadway,Jackson Heights,NY,11372,Wendy's
1797,13842 Jamaica Ave,Jamaica,NY,11435,Wendy's
1798,150 Ave & 147 St # 125,Jamaica,NY,11430,Wendy's
1799,15533 Jamaica Ave,Jamaica,NY,11432,Wendy's
1800,Jfk Delta Airlines T2 # 54,Jamaica,NY,11430,Wendy's
1801,90 Jericho Tpke,Jericho,NY,11753,Wendy's
1802,334 Smith Haven Mall,Lake Grove,NY,11755,Wendy's
1803,106 Portion Rd,Lake Ronkonkoma,NY,11779,Wendy's
1804,3595 Hempstead Tpke,Levittown,NY,11756,Wendy's
1805,4416 Queens Blvd,Long Island City,NY,11104,Wendy's
1806,580 Merrick Rd,Lynbrook,NY,11563,Wendy's
1807,496 County Road 111,Manorville,NY,11949,Wendy's
1808,1820 Route 112,Medford,NY,11763,Wendy's
1809,1728 Merrick Rd,Merrick,NY,11566,Wendy's
1810,6111 Fresh Pond Rd,Middle Village,NY,11379,Wendy's
1811,380 Route 25a,Miller Place,NY,11764,Wendy's
1812,90 E Route 59,Nanuet,NY,10954,Wendy's
1813,20 E 14th St,New York,NY,10003,Wendy's
1814,2121 3rd Ave,New York,NY,10029,Wendy's
1815,3939 Broadway,New York,NY,10032,Wendy's
1816,4 South St # 2,New York,NY,10004,Wendy's
1817,650 Broadway # 1,New York,NY,10012,Wendy's
1818,714 3rd Ave,New York,NY,10017,Wendy's
1819,85 Nassau St,New York,NY,10038,Wendy's
1820,938 8th Ave,New York,NY,10019,Wendy's
1821,1236 Deer Park Ave,North Babylon,NY,11703,Wendy's
1822,887 Montauk Hwy,Oakdale,NY,11769,Wendy's
1823,460 S Service Rd,Patchogue,NY,11772,Wendy's
1824,4955 Nesconset Hwy,Port Jefferson Station,NY,11776,Wendy's
1825,21944 Hillside Ave,Queens Village,NY,11427,Wendy's
1826,9013 Metropolitan Ave,Rego Park,NY,11374,Wendy's
1827,1165 Old Country Rd,Riverhead,NY,11901,Wendy's
1828,3882 Sunrise Hwy,Seaford,NY,11783,Wendy's
1829,259 Middle Country Rd,Selden,NY,11784,Wendy's
1830,555 William Floyd Pkwy,Shirley,NY,11967,Wendy's
1831,570 Middle Country Rd,Saint James,NY,11780,Wendy's
1832,1661 Hylan Blvd,Staten Island,NY,10305,Wendy's
1833,1761 Forest Ave,Staten Island,NY,10303,Wendy's
1834,25 Putnam St,Staten Island,NY,10312,Wendy's
1835,26 Richmond Hill Rd,Staten Island,NY,10314,Wendy's
1836,330 Bay St,Staten Island,NY,10301,Wendy's
1837,6420 Amboy Rd,Staten Island,NY,10309,Wendy's
1838,250 Jericho Tpke,Syosset,NY,11791,Wendy's
1839,3 Route 303,Tappan,NY,10983,Wendy's
1840,2046 Green Acres Mall,Valley Stream,NY,11581,Wendy's
1841,1350 Wantagh Ave,Wantagh,NY,11793,Wendy's
1842,625 W Montauk Hwy,West Babylon,NY,11704,Wendy's
1843,95 S Route 9w,West Haverstraw,NY,10993,Wendy's
1844,65 Hempstead Tpke,West Hempstead,NY,11552,Wendy's
1845,3624 Palisades Center Dr,West Nyack,NY,10994,Wendy's
1846,259 Hillside Ave,Williston Park,NY,11596,Wendy's
1847,1751 Central Park Ave,Yonkers,NY,10710,Wendy's
1848,Address,City,State,ZIP Code,Company Name
1849,21105 Biscayne Blvd,Aventura,FL,33180,Whole Foods Market
1850,1400 Glades Rd # 110,Boca Raton,FL,33431,Whole Foods Market
1851,810 N University Dr,Coral Springs,FL,33071,Whole Foods Market
1852,1903 S University Dr,Davie,FL,33324,Whole Foods Market
1853,1215 SE 12th Ave,Deerfield Beach,FL,33441,Whole Pet Foods Market LLC
1854,680 Linton Blvd # 100,Delray Beach,FL,33444,Whole Foods Market
1855,2000 N Federal Hwy,Fort Lauderdale,FL,33305,Whole Foods Market
1856,2301 N Federal Hwy,Fort Lauderdale,FL,33305,Whole Foods Market
1857,6451 N Federal Hwy # 600,Fort Lauderdale,FL,33308,Whole Foods Market Regl Ofc
1858,1581 W 49th St # 110,Hialeah,FL,33012,Whole Foods Market
1859,200 SE 2nd Ave,Miami,FL,33131,Whole Foods Market
1860,299 SE 3rd St,Miami,FL,33131,Whole Foods Market
1861,7930 SW 104th St,Miami,FL,33156,Whole Foods Market
1862,1020 Alton Rd,Miami Beach,FL,33139,Whole Foods Market
1863,2123 Renaissance Blvd # 304,Miramar,FL,33025,Whole Foods Market Cal Inc
1864,12150 Biscayne Blvd,North Miami,FL,33181,Whole Foods Market
1865,11701 Lake Victoria Gard #6101,Palm Beach Gardens,FL,33410,Whole Foods Market
1866,14956 Pines Blvd,Pembroke Pines,FL,33027,Whole Foods Market
1867,11701 S Dixie Hwy,Pinecrest,FL,33156,Whole Foods Market
1868,7710 Peters Rd,Plantation,FL,33324,Whole Foods Market
1869,7720 Peters Rd,Plantation,FL,33324,Whole Foods Market
1870,2411 N Federal Hwy,Pompano Beach,FL,33064,Whole Foods Market
1871,2801 N Course Dr,Pompano Beach,FL,33069,Whole Foods Market Inc
1872,2700 NW 19th St,Pompano Beach,FL,33069,Whole Foods Market Regl Office
1873,6701 SW 57th Ave,South Miami,FL,33143,Whole Foods Market
1874,2635 S State Road 7,Wellington,FL,33414,Whole Foods Market
1875,1845 Palm Beach Lakes Blvd,West Palm Beach,FL,33401,Whole Foods Market
1876,319 Chimney Rock Rd,Bound Brook,NJ,8805,Whole Foods Market
1877,1255 Raritan Rd # 150,Clark,NJ,7066,Whole Foods Market
1878,45 Ver Valen St,Closter,NJ,7624,Whole Foods Market
1879,905 River Rd,Edgewater,NJ,7020,Whole Foods Market
1880,NE Region,Edgewater,NJ,7020,Whole Foods Market Inc
1881,935 River Rd # 300,Edgewater,NJ,7020,Whole Foods Market Regl Office
1882,NE Region,Englewood Cliffs,NJ,7632,Whole Foods Market Inc
1883,930 Sylvan Ave # 2,Englewood Cliffs,NJ,7632,Whole Foods Market Regl Ofc
1884,113 US Highway 9,Englishtown,NJ,7726,Whole Foods Market
1885,222 Main St # A,Madison,NJ,7940,Whole Foods Market
1886,,Maywood,NJ,7607,Whole Foods Market
1887,645 Middlesex Ave,Metuchen,NJ,8840,Whole Foods Market
1888,701 Bloomfield Ave,Montclair,NJ,7042,Whole Foods Market
1889,110 Washington St,Morristown,NJ,7960,Whole Foods Market
1890,633 Broad St,Newark,NJ,7102,Whole Foods Market
1891,1560 State Route 35,Ocean,NJ,7712,Whole Foods Market
1892,300 Bergen Town Ctr,Paramus,NJ,7652,Whole Foods Market
1893,60 Waterview Blvd,Parsippany,NJ,7054,Whole Foods Market
1894,471 State Route 35,Red Bank,NJ,7701,Whole Foods Market
1895,44 Godwin Ave,Ridgewood,NJ,7450,Whole Foods Market
1896,2245 Springfield Ave,Vauxhall,NJ,7088,Whole Foods Market
1897,1933 State Route 35 # 110,Wall Township,NJ,7719,Whole Foods Market
1898,1400 Waterfront Ter,Weehawken,NJ,7086,Whole Foods Market
1899,235 Prospect Ave # 21,West Orange,NJ,7052,Whole Foods Market
1900,113 Flatbush Ave,Brooklyn,NY,11217,Whole Foods Market
1901,147 41st St,Brooklyn,NY,11232,Whole Foods Market
1902,214 3rd St,Brooklyn,NY,11215,Whole Foods Market
1903,238 Bedford Ave,Brooklyn,NY,11249,Whole Foods Market
1904,292 Ashland Pl,Brooklyn,NY,11217,Whole Foods Market
1905,233 Bay Ridge Pkwy,Brooklyn,NY,11209,Whole Foods Market Inc
1906,480 Bedford Rd,Chappaqua,NY,10514,Whole Foods Market
1907,120 Veterans Memorial Hwy # B,Commack,NY,11725,Whole Foods Market
1908,20 Marion Ln,East Hampton,NY,11937,Whole Foods Market
1909,429 N Broadway,Jericho,NY,11753,Whole Foods Market
1910,120 New Moriches Rd,Lake Grove,NY,11755,Whole Foods Market
1911,2101 Northern Blvd,Manhasset,NY,11030,Whole Foods Market
1912,250 7th Ave,New York,NY,10001,Whole Body At Whole Foods Mkt
1913,10 Columbus Cir # Sc101,New York,NY,10019,Whole Foods Market
1914,100 W 125th St # B,New York,NY,10027,Whole Foods Market
1915,1095 Avenue Of The Americas,New York,NY,10036,Whole Foods Market
1916,1551 3rd Ave,New York,NY,10128,Whole Foods Market
1917,193 Manhattan Ave,New York,NY,10025,Whole Foods Market
1918,226 E 57th St,New York,NY,10022,Whole Foods Market
1919,250 7th Ave,New York,NY,10001,Whole Foods Market
1920,270 Greenwich St # 3,New York,NY,10007,Whole Foods Market
1921,4 Union Sq S # 4,New York,NY,10003,Whole Foods Market
1922,450 W 33rd St,New York,NY,10001,Whole Foods Market
1923,808 Columbus Ave,New York,NY,10025,Whole Foods Market
1924,95 E Houston St,New York,NY,10002,Whole Foods Market
1925,575 Boston Post Rd,Port Chester,NY,10573,Whole Foods Market
1926,368 Montauk Hwy,Wainscott,NY,11975,Whole Foods Market
1927,110 Bloomingdale Rd,White Plains,NY,10605,Whole Foods Market
1928,1 Ridge Hill Rd,Yonkers,NY,10710,Whole Foods Market
1929,1020 Warburton Ave # 11b,Yonkers,NY,10701,Whole Foods Market
1930,33 Market St,Yonkers,NY,10710,Whole Foods Market Group Inc
